site,lat,lng,zip,name,address,phone,email,web
"Beefeater","52.431067","-2.104805","DY9 9JS","Badgers Sett","Birmingham Road, Hagley, Nr Stourbridge, DY9 9JS","","","https://www.beefeater.co.uk/en-gb/locations/worcestershire/badgers-sett"
"Beefeater","51.615224","-3.807146","SA12 8ES","Bagle Brook","Baglan Road, Baglan, Port Talbot, SA12 8ES","","","https://www.beefeater.co.uk/en-gb/locations/port-talbot/bagle-brook"
"Beefeater","50.944962","-1.46189","SO16 0XJ","Balmoral Inn","Romsey Road, Nursling, Southampton, SO16 0XJ","","","https://www.beefeater.co.uk/en-gb/locations/hampshire/balmoral-inn"
"Beefeater","55.775559","-4.033050","ML3 7BL","Beefeater Hamilton","Townhead Street, Hamilton, Motherwell, ML3 7BL","","","https://www.beefeater.co.uk/en-gb/locations/glasgow/hamilton"
"Beefeater","52.581826","-2.026415","WS2 0WB","Bentley Green","Bentley Road, Walsall, West Midlands, WS2 0WB","","","https://www.beefeater.co.uk/en-gb/locations/west-midlands/bentley-green"
"Beefeater","52.395768","-1.984669","B31 2UQ","Birmingham South","1 High Street, Longbridge Town Centre, Birmingham, B31 2UQ","","","https://www.beefeater.co.uk/en-gb/locations/west-midlands/longbridge"
"Beefeater","55.837018","-4.110614","G71 7SA","Black Bear","601 Hamilton Road, Uddington, Glasgow, G71 7SA","","","https://www.beefeater.co.uk/en-gb/locations/glasgow/black-bear"
"Beefeater","54.858902","-2.879704","CA4 0AD","Border Gate","Carleton, Carlisle, Cumbria, CA4 0AD","","","https://www.beefeater.co.uk/en-gb/locations/cumbria/border-gate"
"Beefeater","51.31676","-0.574325","GU21 6NL","Bridge Barn","Bridge Barn Lane, Horsell, Woking, GU21 6NL","","","https://www.beefeater.co.uk/en-gb/locations/surrey/bridge-barn"
"Beefeater","51.459019","-2.591643","BS1 3LR","Bristol Fashion","The Haymarket, Bristol, Avon, BS1 3LR","","","https://www.beefeater.co.uk/en-gb/locations/bristol/bristol-fashion"
"Beefeater","54.786821","-1.541946","DH1 1GG","Broomside Park","Broomside Lane, Belmont Industrial Park, Durham, DH1 1GG","","","https://www.beefeater.co.uk/en-gb/locations/county-durham/broomside-park"
"Beefeater","51.989089","-0.976640","MK18 7RA","Buckingham | Beefeater ","Needlepin Way, Buckingham, Buckinghamshire, MK18 7RA","","","https://www.beefeater.co.uk/en-gb/locations/buckinghamshire/buckingham"
"Beefeater","50.226082","-5.082204","TR3 6JZ","Carnon Inn","Old Carnon Hill, Carnon Downs, Truro, TR3 6JZ","","","https://www.beefeater.co.uk/en-gb/locations/cornwall/carnon-inn"
"Beefeater","53.425743","-2.257082","M21 7QS","Christie Fields","Derwent Avenue, West Didsbury, Manchester, M21 7QS","","","https://www.beefeater.co.uk/en-gb/locations/manchester/christie-fields"
"Beefeater","51.706040","-1.952707","GL7 1NP","Cirencester","Kings Meadow, Cirencester, Gloucestershire, GL7 1NP","","","https://www.beefeater.co.uk/en-gb/locations/gloucestershire/cirencester"
"Beefeater","51.546238","-3.078436","CF3 2UQ","Coach and Horses","Newport Road, Castleton, Nr Cardiff, CF3 2UQ","","","https://www.beefeater.co.uk/en-gb/locations/newport/coach-&-horses"
"Beefeater","51.362349","-0.070912","CR0 5RB","Coombe Lodge","104 Coombe Road, Croydon, Surrey, CR0 5RB","","","https://www.beefeater.co.uk/en-gb/locations/greater-london/coombe-lodge"
"Beefeater","51.923718","-0.216186","SG1 4AA","Coreys Mill","Coreys Mill Lane, Stevenage, Hertfordshire, SG1 4AA","","","https://www.beefeater.co.uk/en-gb/locations/hertfordshire/coreys-mill"
"Beefeater","50.7005","-3.49448","EX2 6HE","Countess Wear","398 Topsham Road, Exeter, Devon, EX2 6HE","","","https://www.beefeater.co.uk/en-gb/locations/devon/countess-wear"
"Beefeater","51.916261","-2.105255","GL51 9SL","Cross Hands","Tewkesbury Road, Uckington, Cheltenham, GL51 9SL","","","https://www.beefeater.co.uk/en-gb/locations/gloucestershire/cross-hands"
"Beefeater","50.845629","-0.540422","BN18 9PQ","Crossbush","Crossbush Lane, Arundel, West Sussex, BN18 9PQ","","","https://www.beefeater.co.uk/en-gb/locations/sussex/crossbush"
"Beefeater","51.793352","-0.692879","HP23 4LD","Crows Nest","Tring Hill, Tring, Hertfordshire, HP23 4LD","","","https://www.beefeater.co.uk/en-gb/locations/hertfordshire/crows-nest"
"Beefeater","55.915195","-3.52659","EH54 8AD","Deer Park","Deer Park Avenue, Deer Park, Knightsridge, Livingston, EH54 8AD","","","https://www.beefeater.co.uk/en-gb/locations/west-lothian/deer-park"
"Beefeater","52.293031","-0.683786","NN8 2DP","Dog and Duck","London Road, Wellingborough, Northamptonshire, NN8 2DP","","","https://www.beefeater.co.uk/en-gb/locations/northamptonshire/dog-&-duck"
"Beefeater","51.412143","-0.759034","RG12 7AA","Downshire Arms","Downshire Way, Bracknell, Berkshire, RG12 7AA","","","https://www.beefeater.co.uk/en-gb/locations/berkshire/downshire-arms"
"Beefeater","56.455901","-2.970606","DD1 4XA","Dundee Centre","Riverside Drive, Dundee, Scotland, DD1 4XA","","","https://www.beefeater.co.uk/en-gb/locations/dundee/dundee-centre"
"Beefeater","56.455901","-2.970606","DD1 4XA","Dundee Centre","Riverside Drive, Dundee, Scotland, DD1 4XA","","","https://www.beefeater.co.uk/en-gb/locations/dundee/centre"
"Beefeater","51.498508","-2.479893","BS16 7AN","Emersons Green","200-202 Westerleigh Road, Emersons Green, Bristol, Avon, BS16 7AN","","","https://www.beefeater.co.uk/en-gb/locations/bristol/emersons-green"
"Beefeater","51.16978","0.86554","TN25 4BN","Eureka Park","Eureka Leisure Park, Ashford, Kent, TN25 4BN","","","https://www.beefeater.co.uk/en-gb/locations/kent/eureka-park"
"Beefeater","52.681183","-2.439544","TF3 4LY","Euston Way","Euston Way, Telford, Shropshire, TF3 4LY","","","https://www.beefeater.co.uk/en-gb/locations/shropshire/euston-way"
"Beefeater","51.291761","-0.754405","GU14 7SJ","Farnborough","3 Kingsmead, Farnborough, Hampshire, GU14 7SJ","","","https://www.beefeater.co.uk/en-gb/locations/hampshire/farnborough"
"Beefeater","51.218569","-0.783915","GU9 9QJ","Farnham","Guildford Road, Farnham, Surrey, GU9 9QJ","","","https://www.beefeater.co.uk/en-gb/locations/surrey/farnham"
"Beefeater","51.244588","-2.290915","BA11 2LD","Frome Flyer ","Commerce Park, Jenson Avenue, Frome, BA11 2LD","","","https://www.beefeater.co.uk/en-gb/locations/bristol/frome-flyer"
"Beefeater","52.399519","-1.655781","CV7 7EX","George In The Tree","Kenilworth Road, Balsall Common, Berkswell, CV7 7EX","","","https://www.beefeater.co.uk/en-gb/locations/west-midlands/george-in-the-tree"
"Beefeater","53.322362","-3.083652","CH60 3SD","Glegg Arms","Chester Road, Gayton, Heswall, Wirral, CH60 3SD","","","https://www.beefeater.co.uk/en-gb/locations/merseyside/glegg-arms"
"Beefeater","51.859","-2.2515","GL1 5SF","Gloucester (Quayside)","St Ann's Way, Bakers Quay, Gloucester, GL1 5SF","","","https://www.beefeater.co.uk/en-gb/locations/gloucestershire/gloucester-quayside"
"Beefeater","56.47019","-3.0598","DD2 5JU","Gourdie Croft","Kingsway West, Dundee, Angus, DD2 5JU","","","https://www.beefeater.co.uk/en-gb/locations/dundee/gourdie-croft"
"Beefeater","51.009253","-0.947586","GU32 3SB","Great Oak","Buckmore Farm, Winchester Road, Petersfield, GU32 3SB","","","https://www.beefeater.co.uk/en-gb/locations/hampshire/great-oak"
"Beefeater","52.591079","1.736047","NR30 3DD","Great Yarmouth Seafront","South Beach Parade, Great Yarmouth, Norfolk, NR30 3DD","","","https://www.beefeater.co.uk/en-gb/locations/norfolk/great-yarmouth-seafront"
"Beefeater","51.891471","-0.486102","LU5 4LL","Halfway House","350 Luton Road, Dunstable, Bedfordshire, LU5 4LL","","","https://www.beefeater.co.uk/en-gb/locations/bedfordshire/halfway-house"
"Beefeater","53.723915","-1.8623101","HX1 1YA","Halifax","Broad Street Plaza, Halifax, West Yorkshire, HX1 1YA","","","https://www.beefeater.co.uk/en-gb/locations/west-yorkshire/halifax"
"Beefeater","50.846351","-1.091785","PO6 4SA","Harbour Lights - NOW OPEN!","1 Southampton Road, North Harbour, Cosham, Portsmouth, PO6 4SA","","","https://www.beefeater.co.uk/en-gb/locations/hampshire/harbour-lights"
"Beefeater","51.794673","0.130218","CM20 2EP","Harlow Mill","Cambridge Road, Old Harlow, Essex, CM20 2EP","","","https://www.beefeater.co.uk/en-gb/locations/essex/harlow-mill"
"Beefeater","53.369906","-2.237812","SK8 3QH","Heald Green","Finney Lane, Heald Green, Stockport, SK8 3QH","","","https://www.beefeater.co.uk/en-gb/locations/cheshire/heald-green"
"Beefeater","53.529742","-2.245662","M8 4NB","Heaton Park","Middleton Road, Crumpsall, Manchester, M8 4NB","","","https://www.beefeater.co.uk/en-gb/locations/lancashire/heaton-park"
"Beefeater","51.206237","0.261364","TN10 3AN","Hilden Manor","London Road, Tonbridge, Kent, TN10 3AN","","","https://www.beefeater.co.uk/en-gb/locations/kent/hilden-manor"
"Beefeater","55.946632","-3.136935","EH8 7NG","Lady Nairne","228 Willowbrae Road, Old Town, Edinburgh, EH8 7NG","","","https://www.beefeater.co.uk/en-gb/locations/edinburgh/lady-nairne"
"Beefeater","51.578123","0.186381","RM1 3EN","Liberty Bell","Mercury Gardens, Romford, Essex, RM1 3EN","","","https://www.beefeater.co.uk/en-gb/locations/essex/liberty-bell"
"Beefeater","57.465612","-4.24377","IV3 5TD","Loch Ness House","Glenurquhart Road, Inverness, Inverness-shire, IV3 5TD","","","https://www.beefeater.co.uk/en-gb/locations/inverness/loch-ness-house"
"Beefeater","51.501964","-0.426962","UB3 4AZ","London Hayes","Millington Road, Hayes, London, UB3 4AZ","","","https://www.beefeater.co.uk/en-gb/locations/greater-london/london-hayes"
"Beefeater","51.493251","0.066626","SE18 6BF","London Woolwich","Beresford Street, Woolwich, London, SE18 6BF","","","https://www.beefeater.co.uk/en-gb/locations/greater-london/london-woolwich"
"Beefeater","52.679831","-2.049375","WS11 1SJ","Longford House","Watling Street, Cannock, Staffs, WS11 1SJ","","","https://www.beefeater.co.uk/en-gb/locations/staffordshire/longford-house"
"Beefeater","51.295827","0.507805","ME14 3AS","Malta Inn","Allington Lock, Sandling, Nr Maidstone, Kent, ME14 3AS","","","https://www.beefeater.co.uk/en-gb/locations/kent/malta-inn"
"Beefeater","51.364728","0.603386","ME8 7JE","Manor Farm","High Street, Rainham, Gillingham, ME8 7JE","","","https://www.beefeater.co.uk/en-gb/locations/kent/manor-farm"
"Beefeater","50.706882","-1.289806","PO30 2DN","Medina Quay","Seaclose, Fairlee Road, Newport, Isle of Wight, PO30 2DN","","","https://www.beefeater.co.uk/en-gb/locations/isle-of-wight/medina-quay"
"Beefeater","52.796275","-1.66048","DE14 2DQ","Merry Monk","Mercia Park, Burton on Trent, Staffordshire, DE14 2DQ","","","https://www.beefeater.co.uk/en-gb/locations/staffordshire/merry-monk"
"Beefeater","53.417819","-2.744951","WA9 4TT","Mickle Head Green","Eurolink, Lea Green, St Helens, Merseyside, WA9 4TT","","","https://www.beefeater.co.uk/en-gb/locations/merseyside/micklehead-green"
"Beefeater","51.205701","-0.166663","RH1 5BT","Mill House","Brighton Road, Salfords, Redhill, Surrey, RH1 5BT","","","https://www.beefeater.co.uk/en-gb/locations/surrey/mill-house"
"Beefeater","53.212486","-0.518096","LN4 2RF","Mill Lodge","Lincoln Road, Lincoln, Lincolnshire, LN4 2RF","","","https://www.beefeater.co.uk/en-gb/locations/lincolnshire/mill-lodge"
"Beefeater","52.988066","-1.208056","NG8 6AS","Millers Barn","The Phoenix Centre, Cinderhill Road, Notttingham, NG8 6AS","","","https://www.beefeater.co.uk/en-gb/locations/nottingham/millers-barn"
"Beefeater","53.980415","-1.133276","YO26 6RL","Millfield","White Rose Close, York Business Park, Nether Poppleton, York, YO26 6RL","","","https://www.beefeater.co.uk/en-gb/locations/york/the-millfield"
"Beefeater","51.346966","-0.315728","KT9 2NE","Monkey Puzzle","Leatherhead Road, Chessington, London, KT9 2NE","","","https://www.beefeater.co.uk/en-gb/locations/greater-london/monkey-puzzle"
"Beefeater","55.065235","-1.581421","NE23 7QA","Moor Farm","Annitsford, Cramlington, Northumberland, NE23 7QA","","","https://www.beefeater.co.uk/en-gb/locations/northumberland/moor-farm"
"Beefeater","51.708033","-0.335270","AL2 3TZ","Moor Mill","Smug Oak Lane, Bricket Wood, Radlett, AL2 3TZ","","","https://www.beefeater.co.uk/en-gb/locations/hertfordshire/moor-mill"
"Beefeater","53.610089","-2.934461","L40 9RG","Morris Dancers","Southport Road, Scarisbrick, Ormskirk, L40 9RG","","","https://www.beefeater.co.uk/en-gb/locations/lancashire/morris-dancers"
"Beefeater","54.518634","-1.503839","DL1 4PJ","Morton Park","Morton Park Way, Morton Park, Darlington, DL1 4PJ","","","https://www.beefeater.co.uk/en-gb/locations/county-durham/morton-park"
"Beefeater","52.635192","-2.124277","WV10 6TA","Moseley Park","Wolverhampton Business Park, Greenfield Lane, Wolverhampton, WV10 6TA","","","https://www.beefeater.co.uk/en-gb/locations/west-midlands/moseley-park"
"Beefeater","53.790166","-2.658365","PR2 5PZ","Norman Jepson","Bluebell Way, Fulwood, Preston, PR2 5PZ","","","https://www.beefeater.co.uk/en-gb/locations/lancashire/norman-jepson"
"Beefeater","52.460728","-0.731237","NN18 8TJ","Oakley Hay","2 Little Colliers Field, Great Oakley, Corby, Northants, NN18 8TJ","","","https://www.beefeater.co.uk/en-gb/locations/northamptonshire/oakley-hay"
"Beefeater","50.851195","-1.210553","PO14 1RJ","Oast and Squire","Peak Lane, The Avenue, Fareham, PO14 1RJ","","","https://www.beefeater.co.uk/en-gb/locations/hampshire/oast-&-squire"
"Beefeater","52.612931","-1.191298","LE19 1LU","Observatory","Meridian Business Park, Thorpe Astley, Braunstone, Leicester, LE19 1LU","","","https://www.beefeater.co.uk/en-gb/locations/leicestershire/the-observatory"
"Beefeater","51.669636","-1.298759","OX14 1AD","Ock Mill","Marcham Road, Abingdon, Oxford, OX14 1AD","","","https://www.beefeater.co.uk/en-gb/locations/oxford/ock-mill"
"Beefeater","51.8299395","-1.3138091","OX5 1RA","Oxford Kidlington (Airport) Beefeater ","Oxford Technology Park, Langford Lane, Kidlington, OX5 1RA","","","https://www.beefeater.co.uk/en-gb/locations/oxford/oxford-kidlington"
"Beefeater","52.032987","1.150104","IP2 8ND","Oyster Reach","Bourne Hill, Wherstead, Ipswich, IP2 8ND","","","https://www.beefeater.co.uk/en-gb/locations/suffolk/oyster-reach"
"Beefeater","51.248183","-0.57055","GU1 1UP","Parkway","Parkway, Guildford, Surrey, GU1 1UP","","","https://www.beefeater.co.uk/en-gb/locations/surrey/the-parkway"
"Beefeater","53.313553","-2.665496","WA7 3BB","Preston Brook","Chester Road, Runcorn, Cheshire, WA7 3BB","","","https://www.beefeater.co.uk/en-gb/locations/merseyside/preston-brook"
"Beefeater","52.132527","-0.435821","MK41 9DJ","Priory Marina","Priory Country Park, Barkers Lane, Bedford, MK41 9DJ","","","https://www.beefeater.co.uk/en-gb/locations/bedfordshire/priory-marina"
"Beefeater","53.471304","-2.287582","M50 3SQ","Quay House","The Quays, Salford Quays, Salford, M50 3SQ","","","https://www.beefeater.co.uk/en-gb/locations/lancashire/quay-house"
"Beefeater","51.345836","-0.786043","GU47 0RT","Rackstraws Farm","221 Yorktown Road, College Town, Sandhurst, GU47 0RT","","","https://www.beefeater.co.uk/en-gb/locations/berkshire/rackstraws-farm"
"Beefeater","51.419306","-0.973182","RG2 0TA","Reading M4 J11","Imperial Way, Reading, Berkshire, RG2 0TA","","","https://www.beefeater.co.uk/en-gb/locations/berkshire/reading-gateway-m4-j11"
"Beefeater","53.854958","-3.039596","FY2 0AR","Red Lion","Devonshire Road, Bispham, Blackpool, FY2 0AR","","","https://www.beefeater.co.uk/en-gb/locations/lancashire/red-lion"
"Beefeater","52.316228","-1.939672","B97 6AQ","Redditch","Bordesley Lane, Redditch, Worcestershire, B97 6AQ","","","https://www.beefeater.co.uk/en-gb/locations/west-midlands/redditch"
"Beefeater","53.092706","-0.789771","NG24 2DB","Roman Way","Lincoln Road, Newark, Nottinghamshire, NG24 2DB","","","https://www.beefeater.co.uk/en-gb/locations/nottingham/roman-way"
"Beefeater","51.297822","0.342466","TN15 7RX","Royal Oak","London Road, Wrotham Heath, Nr Sevenoaks, TN15 7RX","","","https://www.beefeater.co.uk/en-gb/locations/kent/royal-oak"
"Beefeater","50.851279","-1.010987","PO9 3JN","Rusty Cutter","65 Bedhampton Hill Road, Bedhampton, Havant, PO9 3JN","","","https://www.beefeater.co.uk/en-gb/locations/hampshire/rusty-cutter"
"Beefeater","52.011839","0.258939","CB10 2SG","Saffron Walden","Thaxted Road, Saffron Walden, Essex, CB10 2SG","","","https://www.beefeater.co.uk/en-gb/locations/essex/saffron-walden"
"Beefeater","51.287239","0.490914","ME16 OHG","Sir Thomas Wyatt","London Road, Maidstone, Kent, ME16 OHG","","","https://www.beefeater.co.uk/en-gb/locations/kent/sir-thomas-wyatt"
"Beefeater","50.810806","-1.874384","BH22 9BB","Smugglers Haunt","Ringwood Road, Tricketts Cross, Ferndown, BH22 9BB","","","https://www.beefeater.co.uk/en-gb/locations/dorset/smugglers-haunt"
"Beefeater","53.284420","-2.121443","SK10 2XA","Springwood Park","Tytherington Business Park, Springwood Way, Tytherington, Macclesfield, SK10 2XA","","","https://www.beefeater.co.uk/en-gb/locations/cheshire/springwood-park"
"Beefeater","51.264721","-1.117312","RG22 6PG","Spruce Goose","Basingstoke Leisure Park, Worting Road, Basingstoke, RG22 6PG","","","https://www.beefeater.co.uk/en-gb/locations/hampshire/spruce-goose"
"Beefeater","53.426531","-2.918119","L13 0DL","Stag and Rainbow","10 Queens Drive, West Derby, Liverpool, L13 0DL","","","https://www.beefeater.co.uk/en-gb/locations/merseyside/stag-&-rainbow"
"Beefeater","52.074938","-2.722494","HR4 9RS","Starting Gate","Holmer Road, Holmer, Hereford, HR4 9RS","","","https://www.beefeater.co.uk/en-gb/locations/herefordshire/starting-gate"
"Beefeater","51.065419","-0.320092","RH12 1RB","Station","57 North Street, Horsham, West Sussex, RH12 1RB","","","https://www.beefeater.co.uk/en-gb/locations/sussex/the-station"
"Beefeater","56.11824","-3.92845","FK8 1QZ","Stirling","Forthside Way, Stirling, Stirlingshire, FK8 1QZ","","","https://www.beefeater.co.uk/en-gb/locations/stirlingshire/stirling"
"Beefeater","51.562284","0.681755","SS2 6GB","Strawberry Field","Thanet Grange, Off Prince Avenue, Southend-on-Sea, SS2 6GB","","","https://www.beefeater.co.uk/en-gb/locations/essex/strawberry-field"
"Beefeater","51.311598","-0.243608","KT18 5NY","Tattenham Corner","Epsom Downs, Epsom, Surrey, KT18 5NY","","","https://www.beefeater.co.uk/en-gb/locations/surrey/tattenham-corner"
"Beefeater","50.94997","-0.15128","RH15 9TQ","The Acorn","Charles Avenue, Burgess Hill, West Sussex, RH15 9TQ","","","https://www.beefeater.co.uk/en-gb/locations/sussex/the-acorn"
"Beefeater","51.89763","0.89621","CO1 1UT","The Albert","Cowdray Avenue, Colchester, Essex, CO1 1UT","","","https://www.beefeater.co.uk/en-gb/locations/essex/the-albert"
"Beefeater","53.563257","-0.615385","DN16 3UA","The Anchor","Lakeside Parkway, Scunthorpe, Lincolnshire, DN16 3UA","","","https://www.beefeater.co.uk/en-gb/locations/lincolnshire/the-anchor"
"Beefeater","51.618914","-1.298360","OX14 4TX","The Applecart","Milton Interchange, Milton, Abingdon, OX14 4TX","","","https://www.beefeater.co.uk/en-gb/locations/oxford/the-applecart"
"Beefeater","53.396314","-2.149892","SK2 6NB","The Bamford Arms","Buxton Road, Stockport, Cheshire, SK2 6NB","","","https://www.beefeater.co.uk/en-gb/locations/cheshire/the-bamford-arms"
"Beefeater","52.358182","-1.779868","B94 6NX","The Barn","Stratford Road, Hockley Heath, Solihull, B94 6NX","","","https://www.beefeater.co.uk/en-gb/locations/west-midlands/the-barn"
"Beefeater","52.039802","-0.751625","MK9 3BZ","The Barn","Secklow Gate West, Milton Keynes, Buckinghamshire, MK9 3BZ","","","https://www.beefeater.co.uk/en-gb/locations/buckinghamshire/the-barn"
"Beefeater","51.457205","0.239176","DA1 5PR","The Beacon","Halcrow Avenue, Dartford, Kent, DA1 5PR","","","https://www.beefeater.co.uk/en-gb/locations/kent/the-beacon"
"Beefeater","50.463692","-3.535412","TQ2 5HE","The Belgrave","Seafront, Belgrave Road, Torquay, TQ2 5HE","","","https://www.beefeater.co.uk/en-gb/locations/devon/the-belgrave"
"Beefeater","52.945055","-1.166036","NG7 1GX","The Boathouse","Castle Marina Park, Castle Bridge Road, Nottingham, NG7 1GX","","","https://www.beefeater.co.uk/en-gb/locations/nottingham/the-boathouse"
"Beefeater","51.873583","-0.402578","LU1 3HJ","The Brache","Osborne Road, Luton, Bedfordshire, LU1 3HJ","","","https://www.beefeater.co.uk/en-gb/locations/bedfordshire/the-brache"
"Beefeater","53.419811","-1.30829","S65 3JB","The Brecks","Wickersley Road, Rotherham, South Yorkshire, S65 3JB","","","https://www.beefeater.co.uk/en-gb/locations/south-yorkshire/the-brecks"
"Beefeater","51.405337","0.158615","BR8 7QD","The Bull","London Road, Swanley, Kent, BR8 7QD","","","https://www.beefeater.co.uk/en-gb/locations/kent/the-bull"
"Beefeater","55.784428","-4.348108","G77 6NP","The Castle","Greenlaw Crookfur Road, Newton Mearns, Glasgow, G77 6NP","","","https://www.beefeater.co.uk/en-gb/locations/glasgow/the-castle"
"Beefeater","51.602606","-2.922471","NP18 2NX","The Coldra","Coldra Junction, Chepstow Road, Langstone, Newport, NP18 2NX","","","https://www.beefeater.co.uk/en-gb/locations/newport/the-coldra"
"Beefeater","51.368838","-0.688951","GU19 5HR","The Cricketers","1 London Road, Bagshot, Surrey, GU19 5HR","","","https://www.beefeater.co.uk/en-gb/locations/surrey/the-cricketers"
"Beefeater","55.75757","-4.170433","G75 0JY","The Crooked Lum","Brunel Way, The Murray, East Kilbride, G75 0JY","","","https://www.beefeater.co.uk/en-gb/locations/glasgow/crooked-lum"
"Beefeater","55.950615","-3.984899","G67 1AX","The Dovecote","4 South Muirhead Road, Cumbernauld, Glasgow, G67 1AX","","","https://www.beefeater.co.uk/en-gb/locations/glasgow/the-dovecote"
"Beefeater","52.471652","-1.940503","B16 9NY","The Duck","176 Hagley Road, Edgbaston, Birmingham, B16 9NY","","","https://www.beefeater.co.uk/en-gb/locations/west-midlands/the-duck"
"Beefeater","53.309412"," -1.145619","S80 3GN","The Duke","High Grounds Road, Ryton View, Worksop, Nottinghamshire, S80 3GN","","","https://www.beefeater.co.uk/en-gb/locations/nottingham/the-dukes-worksop"
"Beefeater","53.09547","-2.485533","CW2 8SD","The Farmhouse","Coppenhall Lane, Woolstanwood, Crewe, CW2 8SD","","","https://www.beefeater.co.uk/en-gb/locations/cheshire/the-farmhouse"
"Beefeater","51.439176","-0.360329","TW2 5PE","The Fountain","Corner Sixth Cross & Staines Road, Twickenham, London, TW2 5PE","","","https://www.beefeater.co.uk/en-gb/locations/greater-london/the-fountain"
"Beefeater","52.498815","1.733581","NR32 4AA","The Foxburrow","249 Yarmouth Road, Lowestoft, Suffolk, NR32 4AA","","","https://www.beefeater.co.uk/en-gb/locations/suffolk/the-foxburrow"
"Beefeater","52.556911","-0.298573","PE2 5UU","The Granary","Ham Lane, Orton Meadows, Nene Park, Peterborough, PE2 5UU","","","https://www.beefeater.co.uk/en-gb/locations/cambridgeshire/the-granary"
"Beefeater","50.538717","-3.600812","TQ12 3AF","The Grandstand","Newton Abbot Racecourse, Newton Road, Newton Abbot, Devon, TQ12 3AF","","","https://www.beefeater.co.uk/en-gb/locations/devon/the-grandstand"
"Beefeater","51.51825","-0.406194","UB4 0HF","The Grapes","362 Uxbridge Road, Hayes, Middlesex, UB4 0HF","","","https://www.beefeater.co.uk/en-gb/locations/greater-london/the-grapes"
"Beefeater","52.4966","-1.4739","CV10 7PJ","The Griff House","Coventry Road, Nuneaton, Warwickshire, CV10 7PJ","","","https://www.beefeater.co.uk/en-gb/locations/warwickshire/griff-house"
"Beefeater","51.550805","0.466801","SS17 9NR","The Haywain","High Road, Fobbing, Stanford Le Hope, SS17 9NR","","","https://www.beefeater.co.uk/en-gb/locations/essex/the-haywain"
"Beefeater","53.238009","-1.541798","S42 7DA","The Highwayman","Baslow Road, Eastmoor, Chesterfield, Derbyshire, S42 7DA","","","https://www.beefeater.co.uk/en-gb/locations/chesterfield/the-highwayman"
"Beefeater","50.978934","-1.385105","SO53 3DJ","The Hut","Bournemouth Road, Chandlers Ford, Eastleigh, SO53 3DJ","","","https://www.beefeater.co.uk/en-gb/locations/hampshire/the-hut"
"Beefeater","52.500046","-2.152184","DY6 8WT","The Kingswinford","Dudley Road, Kingswinford, West Midlands, DY6 8WT","","","https://www.beefeater.co.uk/en-gb/locations/west-midlands/the-kingswinford"
"Beefeater","53.793543","-0.350343","HU7 3DD","The Kingswood","Kingswood Park, Ennerdale, Kingston Upon Hull, Humberside, HU7 3DD","","","https://www.beefeater.co.uk/en-gb/locations/east-yorkshire/the-kingswood"
"Beefeater","52.629429","-1.701744","B78 3HE","The Ladybridge","Bonehill Road, Bitterscote, Tamworth, B78 3HE","","","https://www.beefeater.co.uk/en-gb/locations/staffordshire/the-ladybridge"
"Beefeater","53.506861","-1.111974","DN4 5PJ","The Lakeside","South Entry Drive, White Rose Way, Doncaster, DN4 5PJ","","","https://www.beefeater.co.uk/en-gb/locations/south-yorkshire/the-lakeside"
"Beefeater","51.341547","1.019921","CT5 3DB","The Long Reach","Thanet Way, Whitstable, Kent, CT5 3DB","","","https://www.beefeater.co.uk/en-gb/locations/kent/long-reach"
"Beefeater","51.543697","-3.388465","CF72 8XL","The Longbow","Magden Park, Gwaun Elai, Llantrisant, Rhondda Cynon Taff, CF72 8XL","","","https://www.beefeater.co.uk/en-gb/locations/rhondda-cynon-taff/the-longbow"
"Beefeater","51.881117","-2.240212","GL2 9BE","The Longford Inn","Tewkesbury Road, Longford, Gloucestershire, GL2 9BE","","","https://www.beefeater.co.uk/en-gb/locations/gloucestershire/longford-inn"
"Beefeater","51.73103","-1.203068","OX4 2JT","The Longwall","Oxford Business Park, Garsington Road, Oxford, OX4 2JT","","","https://www.beefeater.co.uk/en-gb/locations/oxford/the-longwall"
"Beefeater","51.548096","-1.85199","SN5 8UB","The Lydiard","Lydiard Fields, Great Western Way, Swindon, SN5 8UB","","","https://www.beefeater.co.uk/en-gb/locations/wiltshire/the-lydiard"
"Beefeater","52.913004","-1.514397","DE22 3HN","The Mallard","Southmead Way, Uttoxeter New Road, Derby, DE22 3HN","","","https://www.beefeater.co.uk/en-gb/locations/chesterfield/the-mallard"
"Beefeater","51.196103","-0.592788","GU7 3BX","The Manor Inn","Guildford Road, Godalming, Surrey, GU7 3BX","","","https://www.beefeater.co.uk/en-gb/locations/surrey/manor-inn"
"Beefeater","50.390894","-4.08906","PL3 6RW","The Marsh Mills ","300 Plymouth Road, Crabtree, Plymouth, PL3 6RW","","","https://www.beefeater.co.uk/en-gb/locations/devon/marsh-mills"
"Beefeater","55.831234","-3.929678","ML1 5SY","The Newhouse","Edinburgh Road, Newhouse, Motherwell, ML1 5SY","","","https://www.beefeater.co.uk/en-gb/locations/lanarkshire/the-newhouse"
"Beefeater","52.111935","-1.94387","WR11 4TP","The Orchard","Twyford, Evesham, Worcestershire, WR11 4TP","","","https://www.beefeater.co.uk/en-gb/locations/worcestershire/the-orchard"
"Beefeater","51.572847","-0.431443","HA4 7DR","The Orchard","Ickenham Road, Ruislip, Middlesex, HA4 7DR","","","https://www.beefeater.co.uk/en-gb/locations/greater-london/the-orchard"
"Beefeater","53.490172","-2.957023","L30 7PT","The Packet Steamer","Northern Perimeter Road, Merseyside, Bootle, Liverpool, Merseyside, L30 7PT","","","https://www.beefeater.co.uk/en-gb/locations/merseyside/packet-steamer"
"Beefeater","51.344234","-2.948975","BS22 8LY","The Pavilion","Hutton Moor Road, Weston-Super-Mare, North Somerset, BS22 8LY","","","https://www.beefeater.co.uk/en-gb/locations/somerset/the-pavilion"
"Beefeater","51.682472","-4.133008","SA14 9BD","The Pemberton","Llandafen Road, Llanelli, Carmarthenshire, SA14 9BD","","","https://www.beefeater.co.uk/en-gb/locations/carmarthenshire/the-pemberton"
"Beefeater","52.38581","-1.799047","B90 4EP","The Plough","Stratford Road, Shirley, Solihull, B90 4EP","","","https://www.beefeater.co.uk/en-gb/locations/west-midlands/the-plough"
"Beefeater","51.111123","1.259959","CT15 7AB","The Plough","Folkestone Road, Dover, Kent, CT15 7AB","","","https://www.beefeater.co.uk/en-gb/locations/kent/the-plough"
"Beefeater","56.002201","-3.80525","FK1 4DS","The Rosebank","Main Street, Camelon, Falkirk, FK1 4DS","","","https://www.beefeater.co.uk/en-gb/locations/stirlingshire/the-rosebank"
"Beefeater","50.742125","-1.74313","BH23 3QG","The Somerford","Somerford Road, Christchurch, Dorset, BH23 3QG","","","https://www.beefeater.co.uk/en-gb/locations/dorset/the-somerford"
"Beefeater","51.447541","-0.995851","RG30 3AB","The Southcote","Southcote Lane, Reading, Berkshire, RG30 3AB","","","https://www.beefeater.co.uk/en-gb/locations/berkshire/the-southcote"
"Beefeater","51.792843","-0.209905","AL8 6DQ","The Stanborough","Stanborough Road, Welwyn Garden City, Hertfordshire, AL8 6DQ","","","https://www.beefeater.co.uk/en-gb/locations/hertfordshire/the-stanborough"
"Beefeater","54.566662","-1.28701","TS17 6QB","The Talpore","White Water Way, Thornaby, Stockton-on-Tees, TS17 6QB","","","https://www.beefeater.co.uk/en-gb/locations/county-durham/the-talpore"
"Beefeater","52.235535","-0.985698","NN7 4DD","The Turnpike","Harpole Turn, Weedon Road, Harpole, Northampton, NN7 4DD","","","https://www.beefeater.co.uk/en-gb/locations/northamptonshire/the-turnpike"
"Beefeater","51.918081","-0.427576","LU3 2BL","The Warden","129 Barton Road, Luton, Bedfordshire, LU3 2BL","","","https://www.beefeater.co.uk/en-gb/locations/bedfordshire/the-warden"
"Beefeater","51.620923","-3.924824","SA1 8PL","The Waterfront","The Waterfront Development, Langdon Road, Swansea, SA1 8PL","","","https://www.beefeater.co.uk/en-gb/locations/swansea/the-waterfront"
"Beefeater","51.431782","0.364142","DA11 7LF","The Woodlands","Wrotham Road, Gravesend, Kent, DA11 7LF","","","https://www.beefeater.co.uk/en-gb/locations/kent/the-woodlands"
"Beefeater","52.768882","-2.360127","TF10 9BY","Three Fish","Stafford Road, Newport, Shropshire, TF10 9BY","","","https://www.beefeater.co.uk/en-gb/locations/shropshire/the-three-fish"
"Beefeater","52.212072","-2.162568","WR4 9FA","Three Pears","Wainwright Way, Warndon, Worcester, WR4 9FA","","","https://www.beefeater.co.uk/en-gb/locations/worcestershire/three-pears"
"Beefeater","51.930847","-2.561546","HR9 7QJ","Travellers Rest","Ledbury Road, Ross-On-Wye, Herefordshire, HR9 7QJ","","","https://www.beefeater.co.uk/en-gb/locations/herefordshire/travellers-rest"
"Beefeater","52.22226","0.093568","CB3 0DL","Travellers Rest","Huntingdon Road, Girton, Cambridge, CB3 0DL","","","https://www.beefeater.co.uk/en-gb/locations/cambridgeshire/travellers-rest"
"Beefeater","51.582554","-0.316925","HA3 8AT","Travellers Rest","Kenton Road, Harrow, Middlesex, HA3 8AT","","","https://www.beefeater.co.uk/en-gb/locations/greater-london/travellers-rest"
"Beefeater","51.83952","-2.139711","GL3 4SS","Twelve Bells","Witcombe, Gloucester, Gloucestershire, GL3 4SS","","","https://www.beefeater.co.uk/en-gb/locations/gloucestershire/twelve-bells"
"Beefeater","51.544558","-0.489740","UB8 2YF","Uxbridge","Phase 500, Riverside Way, Uxbridge, UB8 2YF","","","https://www.beefeater.co.uk/en-gb/locations/greater-london/uxbridge"
"Beefeater","51.452977","-3.265278","CF5 6DD","Walston Castle","Port Road, Nantisaf, Wenvoe, Cardiff, CF5 6DD","","","https://www.beefeater.co.uk/en-gb/locations/cardiff/walston-castle"
"Beefeater","51.806310","-0.025835","SG12 9QB","Ware","Marsh Lane, Ware, Hertfordshire, SG12 9QB","","","https://www.beefeater.co.uk/en-gb/locations/hertfordshire/ware"
"Beefeater","51.580423","0.496965","SS13 1BW","Watermill","Felmores, East Mayne, Basildon, SS13 1BW","","","https://www.beefeater.co.uk/en-gb/locations/essex/the-watermill"
"Beefeater","55.934918","-4.316146","G63 6JQ","West Highland Gate","103 Main Street, Milngavie, Glasgow, G63 6JQ","","","https://www.beefeater.co.uk/en-gb/locations/glasgow/west-highland-gate"
"Beefeater","50.634206","-2.462423","DT3 5HJ","Weymouth","Gateway Business Park,  Mercery Road, Weymouth, DT3 5HJ","","","https://www.beefeater.co.uk/en-gb/locations/dorset/weymouth"
"Beefeater","50.887955","0.627925","TN35 4LW","White Hart","Winchelsea Road, Guestling, Hastings, TN35 4LW","","","https://www.beefeater.co.uk/en-gb/locations/sussex/white-hart"
"Beefeater","51.022934","-3.072151","TA1 2DU","White Lodge","81 Bridgwater Road, Taunton, Somerset, TA1 2DU","","","https://www.beefeater.co.uk/en-gb/locations/somerset/white-lodge"
"Beefeater","50.412839","-3.578775","TQ4 7RZ","White Rock","White Rock, Long Road South, Paignton, TQ4 7RZ","","","https://www.beefeater.co.uk/en-gb/locations/devon/white-rock"
"Beefeater","53.522535","-2.164435","OL9 8DW","Whitegate Inn","Broadway, Chadderton, Oldham, OL9 8DW","","","https://www.beefeater.co.uk/en-gb/locations/lancashire/whitegate-inn"
"Beefeater","55.047750","-1.447347","NE26 1GB","Whitley Bay","9 Spanish City Plaza, Whitley Bay, Tyne & Wear, NE26 1GB","","","https://www.beefeater.co.uk/en-gb/locations/northumberland/whitley-bay"
"Beefeater","51.184758","0.817327","TN26 1AP","Woolpack","Maidstone Road, Hothfield Common, Hothfield, Nr Ashford, Kent, TN26 1AP","","","https://www.beefeater.co.uk/en-gb/locations/kent/the-woolpack"
"Beefeater","53.863486","-1.671504","LS19 7AW","Yeadon Stoops","Victoria Avenue, Bayton Lane, Yeadon, LS19 7AW","","","https://www.beefeater.co.uk/en-gb/locations/west-yorkshire/yeadon-stoops"
"Beefeater","50.941169","-2.627031","BA20 1LT","Yeovil","Key Market House, Middle Street, Yeovil, BA20 1LT","","","https://www.beefeater.co.uk/en-gb/locations/somerset/yeovil"
