site,lat,lng,zip,name,address,phone,email,web
"Brewersfayre","51.814972","-3.027484","NP7 9LH","Abergavenny","Westgate, Llanfoist, Abergavenny, NP7 9LH","","","https://www.brewersfayre.co.uk//en-gb/locations/abergavenny/abergavenny"
"Brewersfayre","53.279533","-3.789768","LL28 5LB","Afon Conwy","Glan Conwy Corner, Colwyn Bay, North Wales, LL28 5LB","","","https://www.brewersfayre.co.uk//en-gb/locations/conwy/afon-conwy"
"Brewersfayre","53.705954","-0.913153","DN14 8JS","Aire & Calder","Rawcliffe Road, Airmyn, Goole, DN14 8JS","","","https://www.brewersfayre.co.uk//en-gb/locations/yorkshire/aire-&-calder"
"Brewersfayre","56.181979","-3.151746","KY7 4UJ","Bankhead Gate","Beaufort Drive, Glenrothes, Fife, KY7 4UJ","","","https://www.brewersfayre.co.uk//en-gb/locations/fife/bankhead-gate"
"Brewersfayre","54.111996","-3.240263","LA14 2PW","Barrow-in-Furness","North Road, Barrow-in-Furness, Lancashire, LA14 2PW","","","https://www.brewersfayre.co.uk//en-gb/locations/cumbria/barrow-in-furness"
"Brewersfayre","51.399694","-3.279244","CF62 5QN","Barry Island","Triangle Site, Fford Y Mileniwm the Waterfront, Barry, CF62 5QN","","","https://www.brewersfayre.co.uk//en-gb/locations/vale-of-glamorgan/barry-island"
"Brewersfayre","52.105701","-0.505031","MK42 7FY","Bedford South","Marsh Leys, Kempston, Bedford, MK42 7FY","","","https://www.brewersfayre.co.uk//en-gb/locations/bedfordshire/bedford-south"
"Brewersfayre","55.819368","-4.041209","ML4 3PD","Bellziehill Farm","10-12 Belziehill Road, Bellshill, N. Lanarkshire, ML4 3PD","","","https://www.brewersfayre.co.uk//en-gb/locations/glasgow/bellziehill-farm"
"Brewersfayre","51.455301","0.142054","DA6 7HG","Bexleyheath","51 Albion Road, Bexleyheath, London, DA6 7HG","","","https://www.brewersfayre.co.uk//en-gb/locations/greater-london/bexleyheath"
"Brewersfayre","51.894186","-1.16262","OX26 1BT","Bicester","Oxford Road, Bicester, Oxfordshire, OX26 1BT","","","https://www.brewersfayre.co.uk//en-gb/locations/oxfordshire/bicester"
"Brewersfayre","51.351388","0.706944","ME9 8RZ","Bobbing Apple","Sheppey Way, Bobbing Corner, Nr Sittingbourne, ME9 8RZ","","","https://www.brewersfayre.co.uk//en-gb/locations/kent/bobbing-apple"
"Brewersfayre","52.329478","-0.254445","PE28 4NQ","Brampton Hut","Great North Road, Brampton, Huntingdon, PE28 4NQ","","","https://www.brewersfayre.co.uk//en-gb/locations/cambridgeshire/brampton-hut"
"Brewersfayre","51.009152","-4.238432","EX39 3QU","Brewers Fayre Bideford","Clovelly Road (opp Atlantic Village), Bideford, Devon, EX39 3QU","","","https://www.brewersfayre.co.uk//en-gb/locations/devon/brewers-fayre-bideford"
"Brewersfayre","54.648487","-3.370277","CA13 0QX","Brewers Fayre Cockermouth","Waterloo Lane, Cockermouth, Cumbria, CA13 0QX","","","https://www.brewersfayre.co.uk//en-gb/locations/cumbria/brewers-fayre-cockermouth"
"Brewersfayre","51.200969","-3.462277","TA24 6DF","Brewers Fayre Minehead","Seaward Way, Minehead, Somerset, TA24 6DF","","","https://www.brewersfayre.co.uk//en-gb/locations/somerset/brewers-fayre-minehead"
"Brewersfayre","51.508983","-2.574406","BS34 7BR","Bristol Concorde","Shield Retail Park, Gloucester Road North, Filton, BS34 7BR","","","https://www.brewersfayre.co.uk//en-gb/locations/bristol/bristol-concorde"
"Brewersfayre","52.628518","1.374042","NR7 0WG","Broadland View","Broadlands Business Park, Old Chapel Way, Norwich, NR7 0WG","","","https://www.brewersfayre.co.uk//en-gb/locations/norfolk/broadland-view"
"Brewersfayre","53.087761","-2.429695","CW1 6FX","Brocklebank","Weston Road, Crewe, Cheshire, CW1 6FX","","","https://www.brewersfayre.co.uk//en-gb/locations/cheshire/brocklebank"
"Brewersfayre","51.196585","0.393748","TN12 6PY","Brookers Oast","The Hop Farm, Beltring, Paddock Wood, Tonbridge, TN12 6PY","","","https://www.brewersfayre.co.uk//en-gb/locations/kent/brookers-oast"
"Brewersfayre","55.893766","-4.135998","G33 6LE","Buchanan Gate","Cumbernauld Road, Stepps, Glasgow, G33 6LE","","","https://www.brewersfayre.co.uk//en-gb/locations/glasgow/buchanan-gate"
"Brewersfayre","53.29181","-2.953069","CH66 1QW","Burleydam","New Chester Road, Childer Thornton, South Wirral, CH66 1QW","","","https://www.brewersfayre.co.uk//en-gb/locations/wirral/burleydam"
"Brewersfayre","52.987701","-0.001961","PE21 9RW","Burton House","Wainfleet Road, Boston, Lincolnshire, PE21 9RW","","","https://www.brewersfayre.co.uk//en-gb/locations/lincolnshire/burton-house"
"Brewersfayre","55.996617","-3.7234","FK2 0YS","Cadgers Brae","Beancross Road, Polmont, Falkirk, FK2 0YS","","","https://www.brewersfayre.co.uk//en-gb/locations/falkirk/cadgers-brae"
"Brewersfayre","51.306875","0.42424","ME19 5TR","Castle Lake","Castle Way, Leybourne, West Malling, ME19 5TR","","","https://www.brewersfayre.co.uk//en-gb/locations/kent/castle-lake"
"Brewersfayre","53.104885","-1.321557","DE55 2DY","Castlewood","Carter Lane East, South Normanton, Alfreton, DE55 2DY","","","https://www.brewersfayre.co.uk//en-gb/locations/derbyshire/castlewood"
"Brewersfayre","54.376019","-1.720529","DL9 3BA","Catterick Garrison","Unit 23, Princes Gate Shopping Park, Richmond Road, Catterick Garrison, North Yorkshire, DL9 3BA","","","https://www.brewersfayre.co.uk//en-gb/locations/yorkshire/catterick-garrison"
"Brewersfayre","52.402203","-1.245983","CV23 0WE","Central Park","2 Central Park Drive, Central Park, Rugby, CV23 0WE","","","https://www.brewersfayre.co.uk//en-gb/locations/warwickshire/central-park"
"Brewersfayre","51.47843","-2.132013","SN14 6UZ","Cepen Park","West Cepen Way, Chippenham, Wiltshire, SN14 6UZ","","","https://www.brewersfayre.co.uk//en-gb/locations/wiltshire/cepen-park"
"Brewersfayre","51.490883","0.290709","RM16 6YJ","Chafford Hundred","Fleming Road, Unicorn Estate, Chafford Hundred, Grays, RM16 6YJ","","","https://www.brewersfayre.co.uk//en-gb/locations/essex/chafford-hundred"
"Brewersfayre","53.399643","-2.815354","L36 6AD","Chapel Brook","Wilson Road, Tarbock, Liverpool, L36 6AD","","","https://www.brewersfayre.co.uk//en-gb/locations/merseyside/chapel-brook"
"Brewersfayre","51.531307","0.150204","RM9 6YS","Chequers Corner","2 New Road, Dagenham, Essex, RM9 6YS","","","https://www.brewersfayre.co.uk//en-gb/locations/essex/dagenham"
"Brewersfayre","53.511913","-1.103804","DN4 7NW","Cheswold Lodge","Doncaster Leisure Park, Herten Way, Bawtry Road, Doncaster, DN4 7NW","","","https://www.brewersfayre.co.uk//en-gb/locations/yorkshire/cheswold-lodge"
"Brewersfayre","53.55423","-2.132893","OL1 2PA","Clayton Green","Westwood Retail Park, Chadderton, Oldham, OL1 2PA","","","https://www.brewersfayre.co.uk//en-gb/locations/lancashire/clayton-green"
"Brewersfayre","53.543489","-0.011502","DN35 0AO","Cleethorpes","Meridian Point, Kings Road, Cleethorpes, DN35 0AO","","","https://www.brewersfayre.co.uk//en-gb/locations/lincolnshire/cleethorpes"
"Brewersfayre","52.729691","-2.439888","TF2 8LE","Clock Tower","Donnington Wood Way, Donnington, Telford, TF2 8LE","","","https://www.brewersfayre.co.uk//en-gb/locations/newport/clock-tower"
"Brewersfayre","53.463858","-2.35395","M17 8WW","Coach House","Trafford Centre, Wilderspool Wood, Manchester, M17 8WW","","","https://www.brewersfayre.co.uk//en-gb/locations/lancashire/coach-house"
"Brewersfayre","54.064148","-2.786751","LA1 3PE","Cottams Field","Caton Road, Lancaster, Lancashire, LA1 3PE","","","https://www.brewersfayre.co.uk//en-gb/locations/lancashire/cottams-field"
"Brewersfayre","55.925776","-3.03345","EH21 8PT","Craig House","Carberry Road, Inveresk, Musselburgh, East Lothian, EH21 8PT","","","https://www.brewersfayre.co.uk//en-gb/locations/edinburgh/craig-house"
"Brewersfayre","53.324722","-3.787794","LL30 3AL","Craigside Inn","Colwyn Road, Llandudno, Gwynedd, LL30 3AL","","","https://www.brewersfayre.co.uk//en-gb/locations/conwy/craigside-inn"
"Brewersfayre","56.077315","-3.397353","KY11 8EX","Crooked Glen","Fife Leisure Park, Whimbrel Place,, Dunfermline, KY11 8EX","","","https://www.brewersfayre.co.uk//en-gb/locations/fife/crooked-glen"
"Brewersfayre","52.434840","-1.429236","CV2 2SZ","Cross Point","Cross Point Business Park, Gielgud Way, Coventry, CV2 2SZ","","","https://www.brewersfayre.co.uk//en-gb/locations/west-midlands/cross-point"
"Brewersfayre","51.58827","-3.209832","CF83 3NL","Crossways","Crossways Business Park, Pontypandy, Caerphilly, CF83 3NL","","","https://www.brewersfayre.co.uk//en-gb/locations/caerphilly/crossways"
"Brewersfayre","53.865599","-1.855295","BD20 5NH","Dalesway","502 Bradford Road, Sandbeds, Keighley, BD20 5NH","","","https://www.brewersfayre.co.uk//en-gb/locations/yorkshire/dalesway"
"Brewersfayre","54.998998","-7.27351","BT47 6SA","Derry City","Crescent Link, County Londonderry, , BT47 6SA","","","https://www.brewersfayre.co.uk//en-gb/locations/northern-ireland/derry-city"
"Brewersfayre","54.961543","-1.686934","NE16 3BJ","Derwent Crossing","Derwenthaugh Road, Swalwell, Gateshead, NE16 3BJ","","","https://www.brewersfayre.co.uk//en-gb/locations/newcastle/derwent-crossing"
"Brewersfayre","51.145783","1.328316","CT15 5FD","Duke of York","Jubilee Way, Guston Wood, Dover, CT15 5FD","","","https://www.brewersfayre.co.uk//en-gb/locations/kent/duke-of-york"
"Brewersfayre","54.807388","-1.5854","DH1 5GB","Dunelm Ridge","Arnison Retail Centre, Pity Me, Durham, DH1 5GB","","","https://www.brewersfayre.co.uk//en-gb/locations/county-durham/dunelm-ridge"
"Brewersfayre","51.997327","-2.128043","GL20 8ND","Elmbury Lodge","Shannon Way, Ashchurch, Tewkesbury, GL20 8ND","","","https://www.brewersfayre.co.uk//en-gb/locations/gloucestershire/elmbury-lodge"
"Brewersfayre","50.723877","-3.472961","EX1 3LJ","Exeter","Fitzroy Road, Exeter, Devon, EX1 3LJ","","","https://www.brewersfayre.co.uk//en-gb/locations/devon/exeter"
"Brewersfayre","52.75136","-1.446891","LE65 1JP","Flagstaff Island","Flagstaff Park, Ashby-de-la-Zouch, Leicestershire, LE65 1JP","","","https://www.brewersfayre.co.uk//en-gb/locations/leicestershire/flagstaff-island"
"Brewersfayre","52.742631","0.381904","PE34 3LW","Freebridge Farm","Clenchwarton Road, West Lynn, Kings Lynn, PE34 3LW","","","https://www.brewersfayre.co.uk//en-gb/locations/norfolk/freebridge-farm"
"Brewersfayre","53.176871","-0.619022","LN6 9UH","Gateway Park","Gateway Park, Roman Way, Newark Road, Lincoln, LN6 9UH","","","https://www.brewersfayre.co.uk//en-gb/locations/lincolnshire/gateway-park"
"Brewersfayre","51.140322","-2.735253","BA6 9FW","Glastonbury","Morland Road, Glastonbury, Somerset, BA6 9FW","","","https://www.brewersfayre.co.uk//en-gb/locations/somerset/glastonbury"
"Brewersfayre","51.109288","-0.198076","RH11 8AX","Goffs Park","45 Goffs Park Road, Goffs Park, Crawley, RH11 8AX","","","https://www.brewersfayre.co.uk//en-gb/locations/sussex/goffs-park"
"Brewersfayre","51.482225","-2.761409","BS20 7GA","Gordano Gate","Wyndham Way, Portishead, Bristol, BS20 7GA","","","https://www.brewersfayre.co.uk//en-gb/locations/bristol/gordano-gate"
"Brewersfayre","52.398151","-2.006207","B45 9FP","Great Park","Ashbrook Drive, Rubery, Rednal, B45 9FP","","","https://www.brewersfayre.co.uk//en-gb/locations/west-midlands/great-park"
"Brewersfayre","52.613348","1.727109","NR30 1SH","Great Yarmouth","Runham Road, Great Yarmouth, Norfolk, NR30 1SH","","","https://www.brewersfayre.co.uk//en-gb/locations/norfolk/great-yarmouth"
"Brewersfayre","53.024433","-2.183382","ST1 5NH","Hanley","Etruria Road, Hanley, Staffordshire, ST1 5NH","","","https://www.brewersfayre.co.uk//en-gb/locations/staffordshire/hanley"
"Brewersfayre","51.3286","-0.27145","KT18 7LB","Haywain","2 and 4 St Margarets Drive, Off Dorking Road, Epsom, KT18 7LB","","","https://www.brewersfayre.co.uk//en-gb/locations/surrey/haywain"
"Brewersfayre","51.30395","-0.219662","KT20 6BW","Heathside","Brighton Road, Tadworth, Surrey, KT20 6BW","","","https://www.brewersfayre.co.uk//en-gb/locations/surrey/heathside"
"Brewersfayre","53.721345","-0.459023","HU13 0JA","Home Farm","Ferriby Road, Hessle, Hull, HU13 0JA","","","https://www.brewersfayre.co.uk//en-gb/locations/yorkshire/home-farm"
"Brewersfayre","50.425537","-3.561807","TQ4 6LP","Inn On The Quay","Tanners Road, Goodrington, Paignton, TQ4 6LP","","","https://www.brewersfayre.co.uk//en-gb/locations/devon/inn-on-the-quay"
"Brewersfayre","57.473308","-4.187486","IV2 3BW","Inshes Gate","Beechwood Park, Inverness, Inverness-shire, IV2 3BW","","","https://www.brewersfayre.co.uk//en-gb/locations/highland/inshes-gate"
"Brewersfayre","51.57791","-1.773777","SN2 8YS","Kembrey Inn","Larch Close, Kembrey Business Park, Swindon, SN2 8YS","","","https://www.brewersfayre.co.uk//en-gb/locations/wiltshire/kembrey-inn"
"Brewersfayre","56.053971","-3.758526","FK2 8PJ","Kincardine Way","Bowtrees R'bout, Houghs of Airth, Falkirk, FK2 8PJ","","","https://www.brewersfayre.co.uk//en-gb/locations/falkirk/kincardine-way"
"Brewersfayre","53.392184","-1.117258","S81 8HU","King William IV","Blyth Road, Oldcotes, Nr Worksop, S81 8HU","","","https://www.brewersfayre.co.uk//en-gb/locations/nottinghamshire/king-william-iv"
"Brewersfayre","54.89414","-2.907826","CA1 2WF","Lakeland Gate","Walkmill Crescent, Carlisle, Cumbria, CA1 2WF","","","https://www.brewersfayre.co.uk//en-gb/locations/cumbria/lakeland-gate"
"Brewersfayre","51.457414","-2.594225","BS1 2PY","Lewins Mead","Lewins Mead, Bristol, Bristol, BS1 2PY","","","https://www.brewersfayre.co.uk//en-gb/locations/bristol/lewins-mead"
"Brewersfayre","57.646802","-3.28738","IV30 1HY","Linkwood Lodge","15 Linkwood Way, Elgin, Moray, IV30 1HY","","","https://www.brewersfayre.co.uk//en-gb/locations/moray/linkwood-lodge"
"Brewersfayre","56.822256","-5.105360","PH33 6AN","Loch Iall","An Aird, Fort William, Lochaber, PH33 6AN","","","https://www.brewersfayre.co.uk//en-gb/locations/highland/loch-iall"
"Brewersfayre","53.250939","-1.420079","S41 7NJ","Lock Keeper","Tapton Lock Hill, Off Rotherway, Chesterfield, S41 7NJ","","","https://www.brewersfayre.co.uk//en-gb/locations/derbyshire/lock-keeper"
"Brewersfayre","50.624352","-2.446582","DT4 7SX","Lodmoor","Preston Beach Road, Weymouth, Dorset, DT4 7SX","","","https://www.brewersfayre.co.uk//en-gb/locations/dorset/lodmoor"
"Brewersfayre","50.197795","-5.396004","TR27 5DG","Loggans Moor","Carwin Rise, Loggans, Hayle, TR27 5DG","","","https://www.brewersfayre.co.uk//en-gb/locations/cornwall/loggans-moor"
"Brewersfayre","57.06442","-2.141583","AB12 4QS","Mains of Balquharn","Portlethen, Aberdeen, Aberdeenshire, AB12 4QS","","","https://www.brewersfayre.co.uk//en-gb/locations/aberdeenshire/mains-of-balquharn"
"Brewersfayre","55.958762","-4.560785","G82 2QU","Malt & Myre","Lomondgate Drive, Dumbarton, Dunbartonshire, G82 2QU","","","https://www.brewersfayre.co.uk//en-gb/locations/west-dunbartonshire/malt-&-myre"
"Brewersfayre","53.430611","-2.355757","M33 5BL","Mersey Farm Sale","Carrington Lane, Ashton On Mersey, Sale, M33 5BL","","","https://www.brewersfayre.co.uk//en-gb/locations/cheshire/mersey-farm-sale"
"Brewersfayre","56.491767","-2.831855","DD5 4HB","Monifieth Farm","Ethiebeaton Park, Monifieth, Dundee, DD5 4HB","","","https://www.brewersfayre.co.uk//en-gb/locations/dundee/monifieth-farm"
"Brewersfayre","51.289366","-0.779343","GU14 0JP","Monkey Puzzle","101 Ively Road, Cove, Farnborough, GU14 0JP","","","https://www.brewersfayre.co.uk//en-gb/locations/hampshire/monkey-puzzle"
"Brewersfayre","55.523894","-4.594088","KA9 2RJ","Monkton Lodge","Kilmarnock Road, Monkton, Prestwick, KA9 2RJ","","","https://www.brewersfayre.co.uk//en-gb/locations/ayrshire/monkton-lodge"
"Brewersfayre","51.866667","0.582951","CM77 8GG","Mulberry Tree","Braintree Bypass, Braintree, Essex, CM77 8GG","","","https://www.brewersfayre.co.uk//en-gb/locations/essex/mulberry-tree"
"Brewersfayre","55.982586","-3.195198","EH6 4TX","Newhaven Quay","51-53 Newhaven Place, Newhaven, Edinburgh, EH6 4TX","","","https://www.brewersfayre.co.uk//en-gb/locations/edinburgh/newhaven-quay"
"Brewersfayre","53.717841","-2.473490","BB3 OSN","Oakenhurst Farm","Riversway Drive, Off Eccleshill Road, Lower Darwen, Blackburn, BB3 OSN","","","https://www.brewersfayre.co.uk//en-gb/locations/lancashire/oakenhurst-farm"
"Brewersfayre","52.667599","1.272955","NR6 6JA","Oaks","Holt Road, Norwich Airport, Norwich, NR6 6JA","","","https://www.brewersfayre.co.uk//en-gb/locations/norfolk/oaks"
"Brewersfayre","51.477374","-3.159106","CF24 5JT","Ocean Park","East Moors Industrial Estate, Keen Road, Cardiff, CF24 5JT","","","https://www.brewersfayre.co.uk//en-gb/locations/cardiff/ocean-park"
"Brewersfayre","53.653452","-3.011123","PR8 1RY","Ocean Plaza","Marine Drive, Southport, Lancashire, PR8 1RY","","","https://www.brewersfayre.co.uk//en-gb/locations/merseyside/ocean-plaza"
"Brewersfayre","53.750487","-1.643507","BD11 1EA","Old Brickworks","Wakefield Road, Drighlington, West Yorkshire, BD11 1EA","","","https://www.brewersfayre.co.uk//en-gb/locations/yorkshire/old-brickworks"
"Brewersfayre","51.748183","-2.222157","GL5 4AF","Old Nelson","Stratford Lodge, Stratford Road, Stroud, GL5 4AF","","","https://www.brewersfayre.co.uk//en-gb/locations/gloucestershire/old-nelson"
"Brewersfayre","54.689362","-1.201737","TS24 0XZ","Old West Quay","Maritime Avenue, Hartlepool, County Durham, TS24 0XZ","","","https://www.brewersfayre.co.uk//en-gb/locations/county-durham/old-west-quay"
"Brewersfayre","52.674144","-2.023072","WS11 8XR","Orbital","Eastern Way, Cannock, Staffordshire, WS11 8XR","","","https://www.brewersfayre.co.uk//en-gb/locations/staffordshire/orbital"
"Brewersfayre","51.608096","-0.694976","HP10 9YL","Papermill","London Road, Loudwater, High Wycombe, HP10 9YL","","","https://www.brewersfayre.co.uk//en-gb/locations/buckinghamshire/papermill"
"Brewersfayre","56.080622","-3.924351","FK7 8EX","Pirnhall Inn","Glasgow Road, Whins of Milton, Stirling, FK7 8EX","","","https://www.brewersfayre.co.uk//en-gb/locations/stirlingshire/pirnhall-inn"
"Brewersfayre","51.211736","-1.517379","SP10 3UX","Portway Inn","Joules Road, Andover, Hampshire, SP10 3UX","","","https://www.brewersfayre.co.uk//en-gb/locations/hampshire/portway-inn"
"Brewersfayre","54.545957","-1.332543","TS18 3RT","Preston Farm","Yarm Road, Stockton-On-Tees, Cleveland, TS18 3RT","","","https://www.brewersfayre.co.uk//en-gb/locations/county-durham/preston-farm"
"Brewersfayre","53.796329","-2.232199","BB10 3EF","Queen Victoria","Queen Victoria Road, Burnley, Lancashire, BB10 3EF","","","https://www.brewersfayre.co.uk//en-gb/locations/lancashire/queen-victoria"
"Brewersfayre","55.984003","-3.406234","EH30 9YJ","Queens Crossing","Builyeon Road, South Queensferry, Edinburgh, EH30 9YJ","","","https://www.brewersfayre.co.uk//en-gb/locations/edinburgh/queens-crossing"
"Brewersfayre","52.83194","-2.137105","ST16 1GX","Redhill","1 Spitfire Close, Stafford, Staffordshire, ST16 1GX","","","https://www.brewersfayre.co.uk//en-gb/locations/staffordshire/redhill"
"Brewersfayre","50.782884","-0.672805","PO21 1BL","Regis","The Esplanade, Bognor Regis, West Sussex, PO21 1BL","","","https://www.brewersfayre.co.uk//en-gb/locations/sussex/regis"
"Brewersfayre","53.698396","-1.508067","WF1 2UF","Rhubarb Triangle","Paragon Business Park, Herriot Way, Wakefield, WF1 2UF","","","https://www.brewersfayre.co.uk//en-gb/locations/yorkshire/rhubarb-triangle"
"Brewersfayre","51.651525","-0.424068","WD18 8AP","Rising Sun","2 Ascot Road, Watford, Hertfordshire, WD18 8AP","","","https://www.brewersfayre.co.uk//en-gb/locations/hertfordshire/rising-sun"
"Brewersfayre","51.634113","0.016906","E4 7QH","Royal Forest","4 Rangers Road, Chingford, London, E4 7QH","","","https://www.brewersfayre.co.uk//en-gb/locations/greater-london/royal-forest"
"Brewersfayre","54.994635","-1.461412","NE29 6DL","Royal Quays","Coble Dene Road, North Shields, Tyne and Wear, NE29 6DL","","","https://www.brewersfayre.co.uk//en-gb/locations/newcastle/royal-quays"
"Brewersfayre","51.305952","-2.826351","BS25 1NN","Sidcot Arms","Bridgwater Road, Winscombe, Somerset, BS25 1NN","","","https://www.brewersfayre.co.uk//en-gb/locations/somerset/sidcot-arms"
"Brewersfayre","51.5312","0.729432","SS1 2YT","Southend-on-Sea","Eastern Esplanade, Southend On Sea, Essex, SS1 2YT","","","https://www.brewersfayre.co.uk//en-gb/locations/essex/southend-on-sea"
"Brewersfayre","53.455515","-2.134717","M34 3SH","Stable Gate","Alphagate Drive, Denton, Manchester, M34 3SH","","","https://www.brewersfayre.co.uk//en-gb/locations/lancashire/stable-gate"
"Brewersfayre","52.457468","-2.140715","DY8 1JR","Stourbridge","Birmingham Street, Stourbridge, West Midlands, DY8 1JR","","","https://www.brewersfayre.co.uk//en-gb/locations/west-midlands/stourbridge"
"Brewersfayre","51.665237","-3.912035","SA6 8WB","Swansea Vale","Upper Fforest Way, Morriston, Swansea, SA6 8WB","","","https://www.brewersfayre.co.uk//en-gb/locations/swansea/swansea-vale"
"Brewersfayre","52.407639","-0.752357","NN16 8FX","Telford Lodge","Rothwell Road, Kettering, Northants, NN16 8FX","","","https://www.brewersfayre.co.uk//en-gb/locations/northamptonshire/telford-lodge"
"Brewersfayre","51.768497","-0.233234","AL10 0DA","The Airfield","Galleria Site, Lemsford Road, Comet Way, Hatfield, AL10 0DA","","","https://www.brewersfayre.co.uk//en-gb/locations/hertfordshire/the-airfield"
"Brewersfayre","54.280761","-0.401071","YO11 2EN","The Carousel","Falconer Road, Scarborough, North Yorkshire, YO11 2EN","","","https://www.brewersfayre.co.uk//en-gb/locations/yorkshire/the-carousel"
"Brewersfayre","54.975027","-1.454087","NE34 9PQ","The Cinder Path","2 Hobsons Way, South Shields, , NE34 9PQ","","","https://www.brewersfayre.co.uk//en-gb/locations/newcastle/the-cinder-path"
"Brewersfayre","50.786051","-1.099834","PO5 3XX","The Clarence Pier","Long Curtain Road, Southsea, Hampshire, PO5 3XX","","","https://www.brewersfayre.co.uk//en-gb/locations/hampshire/the-clarance-pier"
"Brewersfayre","50.797619","0.059545","BN9 0AG","The Drove","The Drove, Newhaven, East Sussex, BN9 0AG","","","https://www.brewersfayre.co.uk//en-gb/locations/sussex/the-drove"
"Brewersfayre","52.896995","-0.664319","NG31 7JT","The Farrier","Harlaxton Road, Grantham, Lincolnshire, NG31 7JT","","","https://www.brewersfayre.co.uk//en-gb/locations/lincolnshire/the-farrier"
"Brewersfayre","52.338804","-2.04931","B61 0BA","The Guild","Birmingham Road, Bromsgrove, Worcestershire, B61 0BA","","","https://www.brewersfayre.co.uk//en-gb/locations/worcestershire/the-guild"
"Brewersfayre","52.540449","-0.25775","PE7 8BT","The Hampton","4 Ashbourne Road, Off London Road, Hampton, PE7 8BT","","","https://www.brewersfayre.co.uk//en-gb/locations/peterborough/the-hampton"
"Brewersfayre","54.711498","-5.812165","BT38 8BE","The Harbour","Alexander Pier, Rogers Quay, Carrickfergus, BT38 8BE","","","https://www.brewersfayre.co.uk//en-gb/locations/northern-ireland/the-harbour"
"Brewersfayre","53.579025","-0.107766","DN31 2UT","The Haven","Appian Way, Grimsby, Humberside, DN31 2UT","","","https://www.brewersfayre.co.uk//en-gb/locations/lincolnshire/the-haven"
"Brewersfayre","54.576092","-3.563776","CA28 6PL","The Howgate","Howgate, Whitehaven, Cumberland, CA28 6PL","","","https://www.brewersfayre.co.uk//en-gb/locations/cumbria/the-howgate"
"Brewersfayre","53.737048","-1.722107","BD19 6HG","The Hunsworth","Whitehall Road, Cleckheaton, West Yorkshire, BD19 6HG","","","https://www.brewersfayre.co.uk//en-gb/locations/yorkshire/the-hunsworth"
"Brewersfayre","52.536299","-1.400199","LE10 0NB","The Marina","Wharf Farm, Coventry Road, Hinckley, LE10 0NB","","","https://www.brewersfayre.co.uk//en-gb/locations/leicestershire/the-marina"
"Brewersfayre","51.938471","1.257623","CO12 4NX","The Mayflower","Parkeston Road, Dovercourt, Harwich, CO12 4NX","","","https://www.brewersfayre.co.uk//en-gb/locations/essex/the-mayflower"
"Brewersfayre","53.516149","-1.378087","S73 0UN","The Meadows","Meadow Gate, Valley Park Industrial Estate, Wombwell, Barnsley, S73 0UN","","","https://www.brewersfayre.co.uk//en-gb/locations/yorkshire/the-meadows"
"Brewersfayre","51.027556","-3.091688","TA2 7RX","The O-Bridge","Massingham Park, Taunton, Somerset, TA2 7RX","","","https://www.brewersfayre.co.uk//en-gb/locations/somerset/the-o-bridge"
"Brewersfayre","55.847289","-4.477508","PA1 2BH","The Phoenix Park","Phoenix Business Park, Linwood, Paisley, PA1 2BH","","","https://www.brewersfayre.co.uk//en-gb/locations/renfrewshire/the-phoenix-park"
"Brewersfayre","55.945403","-4.729571","PA15 2AD","The Point","1-3 James Watt Way, Greenock, Renfrewshire, PA15 2AD","","","https://www.brewersfayre.co.uk//en-gb/locations/inverclyde/the-point"
"Brewersfayre","51.386089","1.373181","CT9 5AF","The Promenade","Station Road, Margate, Kent, CT9 5AF","","","https://www.brewersfayre.co.uk//en-gb/locations/kent/the-promenade"
"Brewersfayre","53.052612","-2.246611","ST5 7EH","The Redwood","Talke Road, Red Street, Newcastle-Under-Lyme, ST5 7EH","","","https://www.brewersfayre.co.uk//en-gb/locations/staffordshire/the-redwood"
"Brewersfayre","51.682654","-4.175169","SA15 4SG","The Sandpiper","Sandpiper Road, Llanelli, Carmarthenshire, SA15 4SG","","","https://www.brewersfayre.co.uk//en-gb/locations/carmarthenshire/the-sandpiper"
"Brewersfayre","52.433513","-1.398032","CV7 9JP","The Sparrow","Coombe Fields Road, Ansty, Coventry, CV7 9JP","","","https://www.brewersfayre.co.uk//en-gb/locations/warwickshire/the-sparrow"
"Brewersfayre","52.026653","1.207155","IP3 9SS","The Swallow","3 Augusta Close, Ipswich, Suffolk, IP3 9SS","","","https://www.brewersfayre.co.uk//en-gb/locations/suffolk/the-swallow"
"Brewersfayre","53.185040","-2.855995","CH3 5PR","The Twirl of Hay","Caldy Valley Road, Boughton, Chester, CH3 5PR","","","https://www.brewersfayre.co.uk//en-gb/locations/cheshire/the-twirl-of-hay"
"Brewersfayre","53.487769","-1.495597","S75 3DL","The Wentworth","Maple Road, Tankersley, Barnsley, South Yorkshire, S75 3DL","","","https://www.brewersfayre.co.uk//en-gb/locations/yorkshire/the-wentworth"
"Brewersfayre","51.417409","-2.587152","BS14 0HR","The Wessex Flyer","Hengrove Leisure Park, Hengrove Way, Bristol, BS14 0HR","","","https://www.brewersfayre.co.uk//en-gb/locations/bristol/the-wessex-flyer"
"Brewersfayre","54.911276","-1.455356","SR5 3HR","The Wessington","Wessington Way, Castletown, Sunderland, SR5 3HR","","","https://www.brewersfayre.co.uk//en-gb/locations/sunderland/the-wessington"
"Brewersfayre","50.886744","0.55069","TN37 7DB","The Windmill","1 John Macaddam Way, St Leonards On Sea, Hastings, TN37 7DB","","","https://www.brewersfayre.co.uk//en-gb/locations/sussex/the-windmill"
"Brewersfayre","53.420262","-2.59891","WA2 8RN","The Winwick Quay","Winwick Road, Winwick Quay Ind. Estate, Warrington, WA2 8RN","","","https://www.brewersfayre.co.uk//en-gb/locations/cheshire/the-winwick-quay"
"Brewersfayre","50.762074","-1.616707","SO41 0FN","Three Bells","Silver Street, Hordle, Lymington, SO41 0FN","","","https://www.brewersfayre.co.uk//en-gb/locations/hampshire/three-bells"
"Brewersfayre","54.638653","-1.68756","DL14 9AP","Tindale Crossing","West Auckland Road, Bishop Auckland, County Durham, DL14 9AP","","","https://www.brewersfayre.co.uk//en-gb/locations/county-durham/tindale-crossing"
"Brewersfayre","51.701680","-3.419224","CF44 0AH","Tirfounder Fields","Riverside Retail Park, Cwmbach, Aberdare, CF44 0AH","","","https://www.brewersfayre.co.uk//en-gb/locations/rhondda-cynon-taff/tirfounder-fields"
"Brewersfayre","53.260865","-2.978191","CH66 9PD","Tudor Rose","Parkgate Road, Ledsham, Ellesmere Port, CH66 9PD","","","https://www.brewersfayre.co.uk//en-gb/locations/wirral/tudor-rose"
"Brewersfayre","53.702372","-1.273041","WF11 0BU","Turnpike","A1 Business Park, Pontefract Road, Knottingley, WF11 0BU","","","https://www.brewersfayre.co.uk//en-gb/locations/yorkshire/turnpike"
"Brewersfayre","51.758464","-3.198802","NP23 8AN","Victoria Park","Victoria Business Park, Waunllwyd, Ebbw Vale, NP23 8AN","","","https://www.brewersfayre.co.uk//en-gb/locations/gwent/victoria-park"
"Brewersfayre","52.586989","-1.986766","WS2 8LR","Walsall","Waterfront, Wolverhampton Street, Walsall, WS2 8LR","","","https://www.brewersfayre.co.uk//en-gb/locations/west-midlands/walsall"
"Brewersfayre","53.702639","-1.856174","HX3 0QT","Water Mill","Salterhebble Hill, Huddersfield Road, Halifax, HX3 0QT","","","https://www.brewersfayre.co.uk//en-gb/locations/yorkshire/water-mill"
"Brewersfayre","51.417837","-0.756598","RG42 1NA","Weather Vane","Arlington Square, Wokingham Road, Bracknell, RG42 1NA","","","https://www.brewersfayre.co.uk//en-gb/locations/berkshire/weather-vane"
"Brewersfayre","51.346430","-2.978539","BS23 1TT","Weston","Dolphin Square, Beach Road, Weston-Super-Mare, BS23 1TT","","","https://www.brewersfayre.co.uk//en-gb/locations/somerset/weston"
"Brewersfayre","53.515983","-2.653663","WN3 6XB","Wheatlea Park","Warrington Road, Wigan, Lancashire, WN3 6XB","","","https://www.brewersfayre.co.uk//en-gb/locations/lancashire/wheatlea-park"
"Brewersfayre","51.847572","-2.171562","GL3 4BJ","Whittle Inn","Gloucester Business Park, Brockworth, Gloucester, GL3 4BJ","","","https://www.brewersfayre.co.uk//en-gb/locations/gloucestershire/whittle-inn"
"Brewersfayre","53.361162","-2.724309","WA8 0GY","Widnes","Venture Fields, The Hive Leisure Park, Widnes, WA8 0GY","","","https://www.brewersfayre.co.uk//en-gb/locations/cheshire/widnes"
"Brewersfayre","51.250668","-0.7771","GU11 1SQ","Willems Park","7 Wellington Avenue, Off Farnborough Road, Aldershot, GU11 1SQ","","","https://www.brewersfayre.co.uk//en-gb/locations/hampshire/willems-park"
"Brewersfayre","52.04919612569577","-0.7221908199646649","MK15 0DS","Willen Dragon","V10 Brickhill Street, Milton Keynes, Buckinghamshire, MK15 0DS","","","https://www.brewersfayre.co.uk//en-gb/locations/buckinghamshire/willen-dragon-milton-keynes"
"Brewersfayre","51.515406","0.060725","E6 5NT","Winsor House","1 Woolwich Manor Way, Beckton, London, E6 5NT","","","https://www.brewersfayre.co.uk//en-gb/locations/greater-london/winsor-house"
"Brewersfayre","53.795296","-3.046281","FY1 6BF","Yeadon Way","Yeadon Way, Southshore	Blackpool, Lancashire, FY1 6BF","","","https://www.brewersfayre.co.uk//en-gb/locations/lancashire/yeadon-way"
