site,lat,lng,zip,name,address,phone,email,web
"fullers","51.5682","-0.052851","E5 9HG","The Anchor & Hope","London","","",""
"fullers","51.4606","-0.304164","TW9 1JL","The Angel & Crown","Richmond","","",""
"fullers","51.8111","-0.806535","HP21 7SZ","The Aristocrat","Aylesbury","","",""
"fullers","51.3657","-2.6108","BS40 8PR","The Bear & Swan","Bristol","","",""
"fullers","51.9312","-1.27619","OX25 5LB","The Barley Mow","Bicester","","",""
"fullers","50.8265","-0.136562","BN1 4AD","The Basketmakers","Brighton","","",""
"fullers","51.4554","-0.419724","TW14 9HF","The Beehive","Feltham","","",""
"fullers","51.4837","-0.30629","TW8 0JG","The Beehive","Brentford","","",""
"fullers","51.4599","-0.178258","SW11 1TH","The Beehive","","","",""
"fullers","51.4299","-0.562359","TW20 0JQ","The Beehive","Egham","","",""
"fullers","51.7896","-0.96108","HP18 0DJ","The Bell","Aylesbury","","",""
"fullers","50.8333","-0.851172","PO18 8HG","The Berkeley Arms","Chichester","","",""
"fullers","51.5051","-0.034083","SE16 5EJ","The Blacksmith's Arms","London","","",""
"fullers","50.7157","-1.98663","BH15 1NE","The Blue Boar","Poole","","",""
"fullers","51.4824","-0.30622","TW8 8BD","The Brewery Tap","Brentford","","",""
"fullers","50.8324","-0.27858","BN43 5DE","The Bridge Inn","Shoreham by Sea","","",""
"fullers","52.0334","-0.969504","MK18 5HP","The Bull & Butcher","Buckingham","","",""
"fullers","50.8353","-0.81193","PO19 3JP","The Bull's Head","Chichester","","",""
"fullers","51.2313","-0.332951","RH4 2DY","The Bull's Head","Dorking","","",""
"fullers","51.756","-1.2111","OX3 7AN","The Butcher's Arms","Oxford","","",""
"fullers","50.8094","-1.07682","PO2 7PH","The Druid's Arms","Portsmouth","","",""
"fullers","50.836","-0.77316","PO19 7JG","The Eastgate","Chichester","","",""
"fullers","50.7933","-0.610725","PO22 6HD","The Elmer","Middleton on Sea","","",""
"fullers","51.5061","-0.320489","W13 9EP","The Forester, Ealing","Ealing","","",""
"fullers","50.9241","-1.01299","PO8 0TD","The Farmer Inn","Portsmouth","","",""
"fullers","51.8531","-0.50916","LU6 2PJ","The Farmer's Boy","Dunstable","","",""
"fullers","50.7868","-1.07923","PO5 2SL","The Fifth Hants Volunteer Arms","Southsea","","",""
"fullers","50.7503","-1.54134","SO41 8FD","The Fisherman's Rest","Lymington","","",""
"fullers","51.2584","-1.16753","RG23 7HH","The Fox Inn","Basingstoke","","",""
"fullers","51.7485","-0.33684","AL1 1RT","The Garibaldi","St. Albans","","",""
"fullers","51.6147","-0.717","HP11 1HZ","The General Havelock","High Wycombe","","",""
"fullers","51.4865","-0.25198","W4 2QE","The George & Devonshire","London","","",""
"fullers","51.5292","-0.083763","N1 6BU","The George & Vulture","London","","",""
"fullers","51.8237","-0.337869","AL5 5AH","The Gibraltar Castle","Harpenden","","",""
"fullers","51.4906","-0.309801","TW8 9NA","The Globe","Brentford","","",""
"fullers","50.7901","-1.07338","PO4 0JA","The Golden Eagle","Southsea","","",""
"fullers","50.8545","-1.17374","PO16 7AE","The Golden Lion","Fareham","","",""
"fullers","51.0066","-0.934038","GU31 4AF","The Good Intent","Petersfield","","",""
"fullers","51.1331","-0.988763","GU34 1SB","The Greyfriar","Chawton","","",""
"fullers","51.4688","-1.08669","RG8 8ER","The Greyhound","Reading","","",""
"fullers","51.4872","-0.303241","TW8 0NP","The Griffin","Brentford","","",""
"fullers","51.6516","-0.57969","HP8 4RS","The Ivy House","Chalfont St Giles","","",""
"fullers","51.2794533","-0.585262656","GU3 3RN","The Jolly Farmer","Guildford","","",""
"fullers","51.1068","-1.30253","SO23 7NU","The King Charles","Winchester","","",""
"fullers","50.8479","-0.941013","PO10 7JD","The King's Arms","Emsworth","","",""
"fullers","51.5078","-0.273048","W3 9NX","The King's Head","London","","",""
"fullers","51.6551","-0.774057","HP13 5YQ","The Le De Spencers","High Wycombe","","",""
"fullers","51.5005","-0.084782","SE1 3HN","The Leather Exchange","London","","",""
"fullers","50.874","0.00939","BN7 1YH","The Lewes Arms","Lewes","","",""
"fullers","51.0187","-0.472415","RH14 9JA","The Limeburners","Billingshurst","","",""
"fullers","51.364","-0.186523","SM1 4BY","The Little Windsor","Sutton","","",""
"fullers","51.4913","-0.308549","TW8 9NY","The Lord Nelson","Brentford","","",""
"fullers","50.8465","-0.932982","PO10 7BJ","The Lord Raglan","Emsworth","","",""
"fullers","51.7385","-1.21756","OX4 2HH","The Marsh Harrier","Oxford","","",""
"fullers","50.8071","-0.976244","PO11 0PS","The Maypole","Hayling Island","","",""
"fullers","50.871","-1.20191","PO17 5EF","The Miner's Arms","Fareham","","",""
"fullers","51.4956","-0.039405","SE16 7PL","The Moby Dick","London","","",""
"fullers","50.8299","-0.636726","PO22 0AS","The Murrell Arms","Bognor Regis","","",""
"fullers","51.3196","-0.388234","KT11 3BN","The Old Plough","Stoke D'Abernon","","",""
"fullers","52.193","-1.71021","CV37 6LE","Old Thatch Tavern","Warwickshire","","",""
"fullers","51.8042","-0.727254","HP22 5EU","The Oak","Aylesbury","","",""
"fullers","51.7883","0.00596","SG12 8AG","The Oak","Ware","","",""
"fullers","51.8798","-0.563018","LU6 1RE","The Old Farm Inn","Dunstable","","",""
"fullers","51.4331","-0.674485","SL4 2EE","The Old Hatchet","Windsor","","",""
"fullers","50.8509","-0.981624","PO9 1DA","The Old House at Home, Havant","Havant","","",""
"fullers","50.9899","-1.49556","SO51 8DE","The Old House at Home","Romsey","","",""
"fullers","50.8813","-1.29607","SO31 7FN","The Old Ship","Southampton","","",""
"fullers","50.8387","-0.777446","PO19 1NS","The Park Tavern","Chichester","","",""
"fullers","51.4952","-0.366046","UB2 4LG","The Plough Inn","Norwood Green","","",""
"fullers","51.9264","-0.544173","LU7 9QH","The Plough Inn","Leighton Buzzard","","",""
"fullers","50.6664","-1.2067","PO36 0NN","The Pointer Inn","Sandown","","",""
"fullers","51.7541","-0.347795","AL3 4RA","The Portland Arms","St. Albans","","",""
"fullers","51.7477","-0.488424","HP1 1QN","The Post Office Arms","Hemel Hempstead","","",""
"fullers","50.8337","-0.145389","BN1 5DN","The Prestonville Arms","Brighton","","",""
"fullers","51.4772","-0.609321","SL4 1JD","The Prince Arthur","Windsor","","",""
"fullers","51.2258","-0.362937","RH4 3QE","The Prince of Wales","Dorking","","",""
"fullers","51.3895","-0.297569","KT6 6AL","The Prince of Wales","Surbiton","","",""
"fullers","51.0861","-0.761863","GU27 1QH","The Prince of Wales","Haslemere","","",""
"fullers","51.4332","-1.14186","RG7 6EY","The Queen's Head","Reading","","",""
"fullers","51.5984","-1.11141","OX10 8ER","The Queen's Head","Wallingford","","",""
"fullers","51.2271","-0.334761","RH4 2JS","The Queen's Head","Dorking","","",""
"fullers","51.485","-0.405415","TW5 9PB","The Queen's Head","Cranford","","",""
"fullers","51.2148","-0.79969","GU9 7NA","The Queen's Head","Farnham","","",""
"fullers","51.7625","-0.742449","HP22 6DU","Bel & The Dragon Wendover","Wendover","","",""
"fullers","51.3702","-0.16648","SM5 2HG","The Railway Tavern","Carshalton","","",""
"fullers","51.4147","-1.51252","RG17 0DY","The Railway Tavern","Hungerford","","",""
"fullers","51.9889","-1.06869","MK18 4AG","The Red Lion","Buckingham","","",""
"fullers","51.508","-0.304957","W5 5RA","Stage 6 @ Red Lion","London","","",""
"fullers","51.0495","-0.717413","GU27 3HY","The Red Lion","Haslemere","","",""
"fullers","50.8746","-1.11239","PO17 6EF","The Red Lion","Fareham","","",""
"fullers","51.476","-0.331838","TW7 5AQ","The Rising Sun","Isleworth","","",""
"fullers","51.036","-0.805688","GU30 7NA","The Rising Sun","Liphook","","",""
"fullers","51.7948","-0.658274","HP23 5ED","The Robin Hood","Tring","","",""
"fullers","50.8511","-0.9826","PO9 1EE","The Robin Hood","Havant","","",""
"fullers","51.4203","-1.71874","SN8 2AJ","The Roebuck","Marlborough","","",""
"fullers","51.467","-0.340762","TW7 6EP","The Royal Oak","Isleworth","","",""
"fullers","51.4778","-0.754249","SL6 3JN","The Royal Oak","Maidenhead","","",""
"fullers","50.8014","-0.73072","PO20 1LN","The Royal Oak","Chichester","","",""
"fullers","51.2356","-0.570042","GU1 3RR","The Royal Oak","Guildford","","",""
"fullers","51.3697","-0.101975","CR0 1SS","The Royal Standard","Croydon","","",""
"fullers","51.4929","-0.233251","W6 0QU","The Salutation","London","","",""
"fullers","50.9143","-0.996024","PO8 0BZ","Ship & Bell Hotel","Waterlooville","","",""
"fullers","50.9211","-1.58703","SO40 2NP","Sir John Barleycorn","Southampton","","",""
"fullers","51.0041","-0.937617","GU32 3HJ","The Square Brewery","Petersfield","","",""
"fullers","50.8135","-1.08855","PO2 8DR","The Ship & Castle","Portsmouth","","",""
"fullers","50.8465","-0.936496","PO10 7AW","The Ship Inn","Emsworth","","",""
"fullers","50.8278","-0.127969","BN2 9UE","The Sir Charles Napier","Brighton","","",""
"fullers","51.4824","-0.311153","TW8 8EW","The Six Bells","Brentford","","",""
"fullers","50.8113","-0.776406","PO20 1PD","The Spotted Cow","Chichester","","",""
"fullers","51.9229","-0.660214","LU7 3AB","The Stag","Leighton Buzzard","","",""
"fullers","50.8095","-1.07034","PO2 7QU","The Stag","Portsmouth","","",""
"fullers","50.9861","-0.61005","GU28 0AH","The Star","Petworth","","",""
"fullers","51.4644","-0.302503","TW9 2RG","The Sun Inn","Richmond","","",""
"fullers","51.3928","-0.304991","KT6 4NS","The Surbiton Flyer","Surbiton","","",""
"fullers","51.4689","-0.324242","TW7 6RJ","The Swan Inn","Isleworth","","",""
"fullers","51.5073738","-0.128834","W4 2QB","The Purple Petal ","Chiswick","","",""
"fullers","51.776","-1.16297","OX33 1EX","The Talkhouse","Oxford","","",""
"fullers","51.1372","-0.93379","GU34 3AE","The Three Horseshoes, East Worldham","Alton","","",""
"fullers","50.8448","-0.904592","PO10 8JH","The Traveller's Joy","Emsworth","","",""
"fullers","50.8049","-0.481701","BN16 1NN","The Tudor Tavern","East preston","","",""
"fullers","51.4082","-0.48931","TW18 1SQ","Three Horseshoes","Staines","","",""
"fullers","50.7647","-1.29867","PO31 7QH","The Union Inn","Cowes","","",""
"fullers","51.4817","-0.619687","SL4 5DD","The Vansittart Arms","Windsor","","",""
"fullers","51.5083","-0.341924","W7 3TD","The Viaduct","London","","",""
"fullers","50.6829","-1.52601","PO40 9UP","The Vine Inn","Freshwater","","",""
"fullers","51.4357","-1.08372","RG7 5BX","The Volunteer, Theale","Reading","","",""
"fullers","51.4953","-0.203259","W14 8PS","The Warwick Arms","London","","",""
"fullers","51.2177","-1.5433","SP11 0PP","The Weyhill Fair","Andover","","",""
"fullers","51.5046","-0.592065","SL1 2BE","The Wheatsheaf","Slough","","",""
"fullers","51.4892","-0.435798","UB3 5DP","The White Hart","Hayes","","",""
"fullers","51.7944","-0.079895","SG14 1HH","The White Horse","Hertford","","",""
"fullers","51.5703","-0.345348","HA2 0HL","The White Horse","Harrow on the Hill","","",""
"fullers","50.9555","-0.487124","RH20 2DY","The White Horse","Pulborough","","",""
"fullers","51.0558","-0.982123","GU32 1DA","The White Horse","Petersfield","","",""
"fullers","50.8612","-0.926514","PO10 8UE","The White Horse","Westbourne","","",""
"fullers","51.7377","-0.469385","HP3 9SB","The White Lion","Hemel Hempstead","","",""
"fullers","51.8773","-0.832787","HP22 4 JT","The White Swan","Aylesbury","","",""
"fullers","50.8335","-0.761784","PO19 7TW","The Wickham Arms","Chichester","","",""
"fullers","50.8121","-1.13657","PO12 4JU","The Windsor Castle","Gosport","","",""
"fullers","51.4170151","-0.294199","KT2 6HT","The Wych Elm","Kingston-Upon Thames","","",""
"fullers","51.0588341","-1.314798","SO23 9PE","The Wykeham Arms","Winchester","","",""
"fullers","51.0587769","-1.31467867","SO23 9PE","Saint George Tea Room","Winchester","","",""
"fullers","50.8100433","-1.193985","PO13 9DS","The Wyvern","","","",""
"fullers","50.8588","-1.31758","SO31 4JF","Ye Olde Whyte Harte","Southampton","","",""
"fullers","51.3547","-1.10328","RG7 2PH","The Calleva Arms","Silchester","","",""
"fullers","51.4742","-2.61077","BS6 7JS","The Cambridge Arms","Bristol","","",""
"fullers","50.7764","-1.74365","BH23 8BA","The Carpenter's Arms","Christchurch","","",""
"fullers","51.4531","-0.358132","TW2 7BB","The Admiral Nelson","Twickenham","","",""
"fullers","51.5074","-0.128834","WC2N 5DS","The Admiralty, Trafalgar Square","London","","",""
"fullers","51.3691","-0.366405","KT10 9QS","The Albert Arms","Esher","","",""
"fullers","50.872","-1.77509","BH24 3NA","The Alice Lisle","Ringwood","","",""
"fullers","51.4293","-0.32238","TW11 9NR","The Anglers","Teddington","","",""
"fullers","51.4941","-0.155834","SW1W 8EZ","The Antelope","London","","",""
"fullers","51.5233","-0.089988","EC1Y 8ND","The Artillery Arms","London","","",""
"fullers","51.4291","-0.45304","TW15 2HW","The Ash Tree","Ashford","","",""
"fullers","51.5178","-0.078795","E1 7JF","The Astronomer","London","","",""
"fullers","51.5095","-0.09174","EC4R 3TE","The Banker, EC4","London","","",""
"fullers","51.3342","-0.258096","KT17 4EA","The Barley Mow, Epsom","Epsom","","",""
"fullers","51.4059","0.013677","BR1 1PW","The Barrel & Horn","Bromley","","",""
"fullers","51.5062","-0.088702","SE1 9QQ","The Barrowboy & Banker, SE1","London","","",""
"fullers","50.9454","-1.03831","PO8 0UB","The Bat & Ball, Hambledon","Hambledon","","",""
"fullers","51.0308342","-1.52321255","SO51 0LB","The Bear & Ragged Staff","Romsey","","",""
"fullers","51.7516","-1.25577","OX1 4EH","The Bear Inn, Oxford","Oxford","","",""
"fullers","50.7451","-1.75998","BH23 7JG","The Bear of Burton","Christchurch","","",""
"fullers","51.487","-0.283165","W4 3PL","The Bell & Crown","London","","",""
"fullers","51.061","-1.308","SO23 9JX","The Bishop on the Bridge","Winchester","","",""
"fullers","51.5476","-0.344545","UB6 0AS","The Black Horse","Greenford","","",""
"fullers","51.4918","-0.192164","SW5 9AN","The Blackbird, Earl's Court","London","","",""
"fullers","51.4872","-0.227132","W6 9GD","The Blue Boat, Fulham Reach","London","","",""
"fullers","51.7603","-0.5568","HP4 2EF","The Boat","Berkhamsted","","",""
"fullers","51.3833275","-2.356872","BA2 4BQ","The Boater","Bath","","",""
"fullers","51.3795","-0.085976","CR0 6TP","The Builders Arms","Croydon","","",""
"fullers","50.7333","-2.75611","DT6 3LF","The Bull Hotel, Bridport","Bridport","","",""
"fullers","51.4737","-0.91175","RG4 6UP","The Bull Inn","Sonning-on-Thames","","",""
"fullers","51.5189","-0.100622","EC1A 9DY","The Butchers Hook & Cleaver, EC1","London","","",""
"fullers","51.449","-0.329866","TW1 3SZ","The Cabbage Patch, Twickenham","Twickenham","","",""
"fullers","50.8522","-1.16593","PO16 8AA","The Cams Mill","Fareham","","",""
"fullers","51.5721","-0.339914","HA1 3EF","The Castle","Harrow","","",""
"fullers","51.5062","-0.305326","W5 5EU","The Castle Inn, Ealing","London","","",""
"fullers","51.5123","-0.07583","EC3N 1NU","The Chamberlain Hotel, Tower Bridge","London","","",""
"fullers","51.2985","-1.05703","RG24 8XA","The Chineham Arms","Basingstoke","","",""
"fullers","51.5065","-0.194732","W8 7LN","The Churchill Arms, Kensington","London","","",""
"fullers","51.5132","-0.130188","W1D 5DH","The Coach & Horses, Soho","London","","",""
"fullers","51.5163651","-0.103590891","EC4M 7RA","The Conductor, Farringdon","London","","",""
"fullers","51.5134","-0.085057","EC3V 3PD","The Counting House, EC3","London","","",""
"fullers","50.9838","-1.50532","SO51 8HG","The Cromwell Arms","Romsey","","",""
"fullers","51.5373039","-0.109825","N1 0EB","The Crown, Islington","London","","",""
"fullers","51.5035","-0.236348","W12 9HY","The Crown & Sceptre","London","","",""
"fullers","50.9532","-1.213","SO32 1AF","The Crown Inn","Southampton","","",""
"fullers","51.3805","-2.35915","BA1 1NW","The Crystal Palace","Bath","","",""
"fullers","51.4896","-0.22318","W6 9PH","The Distillers","London","","",""
"fullers","51.528","-0.13189","NW1 1DN","The Doric Arch, Euston","London","","",""
"fullers","51.4905","-0.234964","W6 9TA","The Dove","London","","",""
"fullers","51.5146","-0.319268","W13 8PH","The Drayton Court Hotel","London","","",""
"fullers","51.5251","-0.320283","W13 8DL","The Duke of Kent","London","","",""
"fullers","51.1263","0.25822","TN2 5TD","The Duke of York","Tunbridge Wells","","",""
"fullers","51.6113","-0.179829","N12 8NR","The Elephant Inn, Finchley","London","","",""
"fullers","51.5287","-0.126761","NW1 2RA","The Euston Flyer, Euston Road","London","","",""
"fullers","51.5201","-0.103685","EC1M 6BP","The Fence","London","","",""
"fullers","50.7649","-1.77291","BH23 7AS","The Fisherman's Haunt","Christchurch","","",""
"fullers","51.905","-0.5984","LU7 9JF","The Five Bells","Leighton Buzzard","","",""
"fullers","51.5699","-0.150982","N6 6BU","The Flask, Highgate","London","","",""
"fullers","51.5338","-0.295626","W5 1DP","The Fox & Goose Hotel","London","","",""
"fullers","50.8725","-1.5763","SO43 7BG","The Fox & Hounds, Lyndhurst","Lyndhurst","","",""
"fullers","51.1107","-0.750602","GU26 6LG","The Fox & Pelican, Hindhead","Hindhead","","",""
"fullers","51.3483","-0.857629","RG27 0NS","The Frog & Wicket","Eversley","","",""
"fullers","51.4922","-0.256847","W4 2DR","The George IV","London","","",""
"fullers","50.8287","-0.141946","BN1 3PA","The Grand Central","Brighton","","",""
"fullers","51.5879","-0.116262","N8 7QB","The Great Northern Railway Tavern","London","","",""
"fullers","51.8981","-0.671794","LU7 0QU","The Grove Lock","Leighton Buzzard","","",""
"fullers","51.5018","-0.007731","E14 9NS","The Gun","London","","",""
"fullers","51.4528","-0.100826","SE24 9HU","The Half Moon, Herne Hill","London","","",""
"fullers","50.952","-0.9827","PO8 0QD","The Hampshire Hog","Waterlooville","","",""
"fullers","51.496","-0.208032","W14 8XJ","The Hand & Flower, Olympia","London","","",""
"fullers","51.4916","-0.339258","TW7 5PR","The Hare & Hounds","Osterley","","",""
"fullers","51.5097","-0.125934","WC2N 4HS","The Harp, Covent Garden","London","","",""
"fullers","51.8145","-0.354671","AL5 2TR","The Harpenden Arms","Harpenden","","",""
"fullers","51.7467","-1.2559","OX1 4LB","The Head of the River","Oxford","","",""
"fullers","51.4983","-0.112516","SE1 7BL","The Hercules","London","","",""
"fullers","51.4929","-0.181371","SW7 4TE","The Hereford Arms","London","","",""
"fullers","50.8811","-1.03086","PO7 7DZ","The Heroes","Waterlooville","","",""
"fullers","51.3839","-1.15427","RG7 4LX","The Hind's Head","Aldermaston","","",""
"fullers","51.5576","-0.1792","NW3 6SG","The Holly Bush","London","","",""
"fullers","51.0907","-1.16113","SO24 9AQ","The Horse & Groom","Winchester","","",""
"fullers","51.5095","-0.080966","EC3R 5AQ","Hung Drawn & Quartered","London","","",""
"fullers","51.3808","-2.35799","BA1 1LJ","The Huntsman, Bath","Bath","","",""
"fullers","51.5104","-0.08633","EC3R 8BG","The Hydrant","London","","",""
"fullers","51.5177","-0.11025","EC1N 2LE","The Inn of Court","London","","",""
"fullers","51.5127","-0.145928","W1K 4AN","The Iron Duke, Mayfair","London","","",""
"fullers","51.5189","-0.132277","W1T 7QN","The Jack Horner","London","","",""
"fullers","51.1676","-0.859514","GU34 4QD","The Jolly Farmer, Alton","Alton","","",""
"fullers","51.493","-0.138318","SW1V 1DX","The Jugged Hare","London","","",""
"fullers","51.2866","-0.088984","CR3 5UA","The King & Queen","Caterham on the Hill","","",""
"fullers","51.8479","-1.35457","OX20 1SU","The King's Arms","Woodstock","","",""
"fullers","51.4935","-0.192733","SW5 0QT","The King's Head, Earl's Court","London","","",""
"fullers","51.2426","-0.57118","GU1 4JW","The King's Head","Guildford","","",""
"fullers","50.8999","-1.18791","PO17 5JN","The King's Head","Fareham","","",""
"fullers","51.295","-0.212624","KT20 6EB","The Kingswood Arms","Banstead","","",""
"fullers","51.4695","-0.449867","TW6 1EW","The London's Pride, Heathrow","London","","",""
"fullers","51.5117","-0.125715","WC2E 9EB","The Lamb & Flag","London","","",""
"fullers","51.4933","-0.216634","W6 8BS","The Latymers","London","","",""
"fullers","51.0694","-0.805972","GU30 7EF","The Links Tavern","Liphook","","",""
"fullers","51.402","-1.3243","RG14 1AA","The Lock Stock & Barrel","Newbury","","",""
"fullers","51.4509","0.012234","SE12 8PU","The Lord Northbrook","London","","",""
"fullers","51.5176","-0.17754","W2 1HB","The Mad Bishop & Bear","London","","",""
"fullers","51.5069","-0.104952","SE1 9NY","The Mad Hatter Hotel, Southwark","London","","",""
"fullers","51.2378","-0.205822","RH2 9AY","The Market Stores","Reigate","","",""
"fullers","51.4766","-0.146848","SW8 4BT","The Mason's Arms, Battersea","London","","",""
"fullers","51.149","-1.45563","SO20 6AX","The Mayfly, Stockbridge","Nr. Stockbridge","","",""
"fullers","51.1865","-0.708486","GU8 6LE","The Mill at Elstead, Godalming","Elstead","","",""
"fullers","50.8905","-1.5274","SO40 7AA","The New Forest","Ashurst","","",""
"fullers","51.4879265","-0.28826043","TW8 0FJ","One Over the Ait","Brentford","","",""
"fullers","51.0687","-1.79518","SP1 1EU","The Ox Row Inn","Salisbury","","",""
"fullers","50.8634","-1.59508","SO43 7FD","The Oak Inn","Lyndhurst","","",""
"fullers","51.4597","-0.166405","SW11 1NJ","The Old Bank, Battersea","London","","",""
"fullers","50.7951","-1.10643","PO1 3TY","The Old Customs House, Gunwharf Quays","Portsmouth","","",""
"fullers","51.4537","-2.59304","BS1 1QZ","The Old Fish Market","Bristol","","",""
"fullers","52.4807","-1.9001","B2 5NY","The Old Joint Stock Pub & Theatre","Birmingham","","",""
"fullers","51.4928","-0.266778","W4 5TF","The Old Pack Horse","London","","",""
"fullers","51.4608","-0.270947","SW14 7AF","The Plough","London","","",""
"fullers","51.7336","-0.461753","HP3 9RH","The Paper Mill","Hemel Hempstead","","",""
"fullers","51.5324","-0.123981","N1C 4AH","The Parcel Yard, King's Cross","London","","",""
"fullers","51.4052","0.014274","BR1 1HE","The Partridge","Bromley","","",""
"fullers","51.513","-0.09403","EC4M 9BR","The Pavilion End","London","","",""
"fullers","50.8846","-1.45034","SO40 4WU","The Pilgrim Inn","Southampton","","",""
"fullers","51.4902","-0.277309","W4 4BZ","The Pilot, Chiswick","London","","",""
"fullers","51.4962","0.010479","SE10 0BE","The Pilot","London","","",""
"fullers","51.4973","-0.312715","W5 4XB","The Plough Inn","London","","",""
"fullers","51.4419","-0.344558","TW2 5QB","The Prince Albert","Twickenham","","",""
"fullers","51.4443","-0.344968","TW2 5AG","The Prince Blucher","Twickenham","","",""
"fullers","51.4604","-0.306418","TW9 1LX","The Prince's Head","Richmond","","",""
"fullers","51.2208","-0.765323","GU10 1NX","The Princess Royal","Farnham","","",""
"fullers","51.46864","-0.44985","TW6 1EW","The Queen's Arms","London","","",""
"fullers","51.496","-0.22066","W6 7BL","The Queen's Head","London","","",""
"fullers","51.4186","-0.301329","KT2 5HA","The Queen's Head","Kingston upon Thames","","",""
"fullers","51.7025","-0.617453","HP5 1JD","The Queen's Head","Old Chesham","","",""
"fullers","51.4755","-0.239067","SW13 9RU","The Red Lion","London","","",""
"fullers","50.9377","-0.961716","PO8 0BG","The Red Lion, Chalton","Waterlooville","","",""
"fullers","51.5348","-0.461022","UB8 3QP","The Red Lion Hotel, Hillingdon","Uxbridge","","",""
"fullers","51.5083","-0.136372","SW1Y 6JP","The Red Lion, Mayfair","London","","",""
"fullers","51.5021","-0.1257","SW1A 2NH","The Red Lion, Parliament Street","London","","",""
"fullers","52.4819","-1.90027","B3 2NP","The Roebuck ","Birmingham","","",""
"fullers","51.5041","-0.305941","W5 4HN","The Rose & Crown","London","","",""
"fullers","51.5112","-0.125538","WC2E 9BF","The Round House","London","","",""
"fullers","51.483","-0.014343","SE10 9FR","The Sail Loft","London","","",""
"fullers","51.5135","-0.0938","EC4M 9DQ","The Saint Bow Lane","London","","",""
"fullers","51.4996","-0.131903","SW1H 9LA","The Sanctuary House Hotel, Westminster","London","","",""
"fullers","51.4969","-0.199193","W8 6HE","The Scarsdale Tavern","London","","",""
"fullers","51.5124","-0.101497","EC4V 5DE","Shaws Booksellers, EC4","London","","",""
"fullers","51.4994","-0.096864","SE1 1DX","The Ship","London","","",""
"fullers","50.8376","-0.980585","PO9 1RD","The Ship Inn","Havant","","",""
"fullers","51.4114","-0.830497","RG40 1XH","The Ship Inn","Wokingham","","",""
"fullers","51.514","-0.13433","W1F 0TT","The Ship, Soho","London","","",""
"fullers","51.5282","-0.133943","NW1 2DU","The Signal Box","London","","",""
"fullers","51.7497","-0.983172","OX9 2AD","The Six Bells","Thame","","",""
"fullers","50.897","-1.01702","PO8 8XJ","The Spotted Cow","Waterlooville","","",""
"fullers","51.3723","-0.100304","CR0 1NX","The Spread Eagle, Croydon","Croydon","","",""
"fullers","51.4984","-0.1558","SW1X 8HT","The Star Tavern","London","","",""
"fullers","50.7922","-1.10941","PO1 2JL","The Still & West","Old Portsmouth","","",""
"fullers","51.5126","-0.136604","W1F 9NG","The Sun & 13 Cantons","London","","",""
"fullers","51.5207","-0.098202","EC1M 6EB","The Sutton Arms, EC1","London","","",""
"fullers","51.5122","-0.084485","EC3V 1LY","The Swan Tavern, EC3","London","","",""
"fullers","50.8538","-0.553707","BN18 9AG","The Swan Hotel","Arundel","","",""
"fullers","51.4325","-0.51621","TW18 3JB","The Swan Hotel","Staines","","",""
"fullers","51.5117","-0.17659","W2 3PH","The Swan","London","","",""
"fullers","51.4774","-0.28589","TW9 3PZ","The Tap on the Line, Kew","Richmond","","",""
"fullers","51.5157","-0.088762","EC2R 7AR","The Telegraph, Moorgate","London","","",""
"fullers","51.5052","-0.08798","SE1 9SG","The Telephone Exchange","London","","",""
"fullers","50.8301","-0.391905","BN14 7PJ","The Thomas A Becket","Worthing","","",""
"fullers","51.5152","-0.08943","EC2R 6DA","The Tokenhouse, Moorgate","London","","",""
"fullers","51.5011024","-0.0937387","SE1 1JX","The Trinity","London","","",""
"fullers","51.4564","-0.32293","TW1 1LF","The Turk's Head","Twickenham","","",""
"fullers","51.4588","-0.972319","RG1 1LY","The Three Guineas","Reading","","",""
"fullers","51.5139","-0.078993","EC3A 5AY","The Trinity Bell, EC3","London","","",""
"fullers","51.5229","-0.201294","W9 2BA","The Union Tavern","London","","",""
"fullers","50.7874","-1.0811","PO5 2SF","The Vaults, Southsea","Portsmouth","","",""
"fullers","51.5162","-0.101586","EC1A 7AA","The Viaduct Tavern, EC1","London","","",""
"fullers","51.5135","-0.171251","W2 2NH","The Victoria","London","","",""
"fullers","51.4347","-0.789735","RG42 5JA","The Victoria Arms","Bracknell","","",""
"fullers","51.5116","-0.088499","EC4N 5AX","The Vintry, EC4","London","","",""
"fullers","51.5038","-0.111483","SE1 8UD","The Wellington Hotel","London","","",""
"fullers","51.5171","-0.299836","W5 2HZ","The Wheatsheaf","London","","",""
"fullers","50.8236","-1.68385","BH24 4AZ","The White Buck","Burley","","",""
"fullers","51.412","-0.311053","KT1 4DA","The White Hart Hotel","Kingston-Upon-Thames","","",""
"fullers","51.5049","-0.101524","SE1 0UG","The White Hart","London","","",""
"fullers","51.1137","-1.48809","SO20 6HF","The White Hart","Stockbridge","","",""
"fullers","51.4615","-0.296128","TW10 6DF","The White Horse","Richmond","","",""
"fullers","51.5585938","-0.280567","HA9 0HP","The White Horse","Wembley","","",""
"fullers","51.2345","-0.577884","GU2 4AJ","The White House","Guildford","","",""
"fullers","50.8983","-1.3982","SO14 3DJ","The White Star Tavern, Southampton","Southampton","","",""
"fullers","52.193","-1.709","CV37 6NH","The White Swan Hotel","Stratford-upon-Avon","","",""
"fullers","51.0619","-1.31381","SO23 9EX","The William Walker","Winchester","","",""
"fullers","51.4996","0.031017","E16 2PN","The Windjammer","London","","",""
"fullers","51.4864","-2.78173","BS20 6JZ","The Windmill Inn","Portishead","","",""
"fullers","51.503","-0.108156","SE1 8LW","The Windmill","London","","",""
"fullers","50.8666","-1.04524","PO7 5LJ","The Woodman","Waterlooville","","",""
"fullers","51.0588341","-1.314798","SO23 9PE","The Wykeham Arms","Winchester","","",""
"fullers","51.5183","-0.107573","EC1N 6SJ","Ye Olde Mitre","London","","",""
